{"type":"FeatureCollection","name":"EMSR916_AOI03_GRA_PRODUCT_builtUpP_v1","crs":{"type":"name","properties":{"name":"urn:ogc:def:crs:OGC:1.3:CRS84"}},"features":[{"type":"Feature","properties":{"obj_type":"11-Residential Buildings","name":"Unknown","info":"997-Not Applicable","simplified":"Residential","damage_gra":"Destroyed","det_method":"Photo-interpretation","notation":"Building point","or_src_id":2,"dmg_src_id":2,"cd_value":"Not Applicable"},"geometry":{"type":"Point","coordinates":[-76.5350474,3.44282263]}},{"type":"Feature","properties":{"obj_type":"11-Residential Buildings","name":"Unknown","info":"997-Not Applicable","simplified":"Residential","damage_gra":"Possibly damaged","det_method":"Photo-interpretation","notation":"Building point","or_src_id":2,"dmg_src_id":2,"cd_value":"Not Applicable"},"geometry":{"type":"Point","coordinates":[-76.53494744,3.44432591]}},{"type":"Feature","properties":{"obj_type":"11-Residential Buildings","name":"Unknown","info":"997-Not Applicable","simplified":"Residential","damage_gra":"Possibly damaged","det_method":"Photo-interpretation","notation":"Building point","or_src_id":2,"dmg_src_id":2,"cd_value":"Not Applicable"},"geometry":{"type":"Point","coordinates":[-76.53178086,3.44512292]}},{"type":"Feature","properties":{"obj_type":"11-Residential Buildings","name":"Unknown","info":"997-Not Applicable","simplified":"Residential","damage_gra":"Destroyed","det_method":"Photo-interpretation","notation":"Building point","or_src_id":2,"dmg_src_id":2,"cd_value":"Not Applicable"},"geometry":{"type":"Point","coordinates":[-76.5310862,3.44532137]}},{"type":"Feature","properties":{"obj_type":"11-Residential Buildings","name":"Unknown","info":"997-Not Applicable","simplified":"Residential","damage_gra":"Possibly damaged","det_method":"Photo-interpretation","notation":"Building point","or_src_id":2,"dmg_src_id":2,"cd_value":"Not Applicable"},"geometry":{"type":"Point","coordinates":[-76.52785666,3.44535727]}},{"type":"Feature","properties":{"obj_type":"11-Residential Buildings","name":"Unknown","info":"997-Not Applicable","simplified":"Residential","damage_gra":"Destroyed","det_method":"Photo-interpretation","notation":"Building point","or_src_id":2,"dmg_src_id":2,"cd_value":"Not Applicable"},"geometry":{"type":"Point","coordinates":[-76.53559882,3.44720158]}},{"type":"Feature","properties":{"obj_type":"11-Residential Buildings","name":"Unknown","info":"997-Not Applicable","simplified":"Residential","damage_gra":"Destroyed","det_method":"Photo-interpretation","notation":"Building point","or_src_id":2,"dmg_src_id":2,"cd_value":"Not Applicable"},"geometry":{"type":"Point","coordinates":[-76.53551462,3.44721683]}},{"type":"Feature","properties":{"obj_type":"11-Residential Buildings","name":"Unknown","info":"997-Not Applicable","simplified":"Residential","damage_gra":"Damaged","det_method":"Photo-interpretation","notation":"Building point","or_src_id":2,"dmg_src_id":2,"cd_value":"Not Applicable"},"geometry":{"type":"Point","coordinates":[-76.52622112,3.44436658]}},{"type":"Feature","properties":{"obj_type":"11-Residential Buildings","name":"Unknown","info":"997-Not Applicable","simplified":"Residential","damage_gra":"Damaged","det_method":"Photo-interpretation","notation":"Building point","or_src_id":2,"dmg_src_id":2,"cd_value":"Not Applicable"},"geometry":{"type":"Point","coordinates":[-76.52613125,3.44440758]}},{"type":"Feature","properties":{"obj_type":"11-Residential Buildings","name":"Unknown","info":"997-Not Applicable","simplified":"Residential","damage_gra":"Damaged","det_method":"Photo-interpretation","notation":"Building point","or_src_id":2,"dmg_src_id":2,"cd_value":"Not Applicable"},"geometry":{"type":"Point","coordinates":[-76.52618058,3.44464934]}},{"type":"Feature","properties":{"obj_type":"11-Residential Buildings","name":"Unknown","info":"997-Not Applicable","simplified":"Residential","damage_gra":"Destroyed","det_method":"Photo-interpretation","notation":"Building point","or_src_id":2,"dmg_src_id":2,"cd_value":"Not Applicable"},"geometry":{"type":"Point","coordinates":[-76.52300955,3.44543404]}},{"type":"Feature","properties":{"obj_type":"11-Residential Buildings","name":"Unknown","info":"997-Not Applicable","simplified":"Residential","damage_gra":"Destroyed","det_method":"Photo-interpretation","notation":"Building point","or_src_id":2,"dmg_src_id":2,"cd_value":"Not Applicable"},"geometry":{"type":"Point","coordinates":[-76.52161292,3.44629179]}},{"type":"Feature","properties":{"obj_type":"11-Residential Buildings","name":"Unknown","info":"997-Not Applicable","simplified":"Residential","damage_gra":"Destroyed","det_method":"Photo-interpretation","notation":"Building point","or_src_id":2,"dmg_src_id":2,"cd_value":"Not Applicable"},"geometry":{"type":"Point","coordinates":[-76.51968715,3.44630311]}},{"type":"Feature","properties":{"obj_type":"11-Residential Buildings","name":"Unknown","info":"997-Not Applicable","simplified":"Residential","damage_gra":"Destroyed","det_method":"Photo-interpretation","notation":"Building point","or_src_id":2,"dmg_src_id":2,"cd_value":"Not Applicable"},"geometry":{"type":"Point","coordinates":[-76.52290333,3.45068746]}}]}