{"type":"FeatureCollection","name":"EMSR916_AOI05_GRA_PRODUCT_builtUpP_v1","crs":{"type":"name","properties":{"name":"urn:ogc:def:crs:OGC:1.3:CRS84"}},"features":[{"type":"Feature","properties":{"obj_type":"11-Residential Buildings","name":"Unknown","info":"997-Not Applicable","simplified":"Residential","damage_gra":"Damaged","det_method":"Photo-interpretation","notation":"Building point","or_src_id":978,"dmg_src_id":2,"cd_value":"Not Applicable"},"geometry":{"type":"Point","coordinates":[-76.68970182,5.14768639]}},{"type":"Feature","properties":{"obj_type":"11-Residential Buildings","name":"Unknown","info":"997-Not Applicable","simplified":"Residential","damage_gra":"Damaged","det_method":"Photo-interpretation","notation":"Building point","or_src_id":978,"dmg_src_id":2,"cd_value":"Not Applicable"},"geometry":{"type":"Point","coordinates":[-76.6800761,5.14975062]}},{"type":"Feature","properties":{"obj_type":"11-Residential Buildings","name":"Unknown","info":"997-Not Applicable","simplified":"Residential","damage_gra":"Damaged","det_method":"Photo-interpretation","notation":"Building point","or_src_id":978,"dmg_src_id":2,"cd_value":"Not Applicable"},"geometry":{"type":"Point","coordinates":[-76.68017669,5.15066674]}},{"type":"Feature","properties":{"obj_type":"11-Residential Buildings","name":"Unknown","info":"997-Not Applicable","simplified":"Residential","damage_gra":"Damaged","det_method":"Photo-interpretation","notation":"Building point","or_src_id":978,"dmg_src_id":2,"cd_value":"Not Applicable"},"geometry":{"type":"Point","coordinates":[-76.68653306,5.15092742]}},{"type":"Feature","properties":{"obj_type":"11-Residential Buildings","name":"Unknown","info":"997-Not Applicable","simplified":"Residential","damage_gra":"Damaged","det_method":"Photo-interpretation","notation":"Building point","or_src_id":978,"dmg_src_id":2,"cd_value":"Not Applicable"},"geometry":{"type":"Point","coordinates":[-76.68123451,5.15116629]}},{"type":"Feature","properties":{"obj_type":"11-Residential Buildings","name":"Unknown","info":"997-Not Applicable","simplified":"Residential","damage_gra":"Destroyed","det_method":"Photo-interpretation","notation":"Building point","or_src_id":978,"dmg_src_id":2,"cd_value":"Not Applicable"},"geometry":{"type":"Point","coordinates":[-76.68821432,5.15552855]}},{"type":"Feature","properties":{"obj_type":"11-Residential Buildings","name":"Unknown","info":"997-Not Applicable","simplified":"Residential","damage_gra":"Damaged","det_method":"Photo-interpretation","notation":"Building point","or_src_id":978,"dmg_src_id":2,"cd_value":"Not Applicable"},"geometry":{"type":"Point","coordinates":[-76.68770875,5.1585728]}},{"type":"Feature","properties":{"obj_type":"11-Residential Buildings","name":"Unknown","info":"997-Not Applicable","simplified":"Residential","damage_gra":"Damaged","det_method":"Photo-interpretation","notation":"Building point","or_src_id":978,"dmg_src_id":2,"cd_value":"Not Applicable"},"geometry":{"type":"Point","coordinates":[-76.6876698,5.16034198]}},{"type":"Feature","properties":{"obj_type":"11-Residential Buildings","name":"Unknown","info":"997-Not Applicable","simplified":"Residential","damage_gra":"Damaged","det_method":"Photo-interpretation","notation":"Building point","or_src_id":978,"dmg_src_id":2,"cd_value":"Not Applicable"},"geometry":{"type":"Point","coordinates":[-76.69005211,5.16366386]}},{"type":"Feature","properties":{"obj_type":"11-Residential Buildings","name":"Unknown","info":"997-Not Applicable","simplified":"Residential","damage_gra":"Damaged","det_method":"Photo-interpretation","notation":"Building point","or_src_id":978,"dmg_src_id":2,"cd_value":"Not Applicable"},"geometry":{"type":"Point","coordinates":[-76.6875894,5.16405215]}}]}