{"type":"FeatureCollection","name":"EMSR916_AOI01_GRA_PRODUCT_builtUpP_v1","crs":{"type":"name","properties":{"name":"urn:ogc:def:crs:OGC:1.3:CRS84"}},"features":[{"type":"Feature","properties":{"obj_type":"11-Residential Buildings","name":"Unknown","info":"997-Not Applicable","simplified":"Residential","damage_gra":"Destroyed","det_method":"Photo-interpretation","notation":"Building point","or_src_id":978,"dmg_src_id":2,"cd_value":"Not Applicable"},"geometry":{"type":"Point","coordinates":[-76.51029784,3.4636483]}},{"type":"Feature","properties":{"obj_type":"11-Residential Buildings","name":"Unknown","info":"997-Not Applicable","simplified":"Residential","damage_gra":"Destroyed","det_method":"Photo-interpretation","notation":"Building point","or_src_id":978,"dmg_src_id":2,"cd_value":"Not Applicable"},"geometry":{"type":"Point","coordinates":[-76.51039317,3.46383938]}},{"type":"Feature","properties":{"obj_type":"11-Residential Buildings","name":"Unknown","info":"997-Not Applicable","simplified":"Residential","damage_gra":"Damaged","det_method":"Photo-interpretation","notation":"Building point","or_src_id":978,"dmg_src_id":2,"cd_value":"Not Applicable"},"geometry":{"type":"Point","coordinates":[-76.50473334,3.47205802]}},{"type":"Feature","properties":{"obj_type":"11-Residential Buildings","name":"Unknown","info":"997-Not Applicable","simplified":"Residential","damage_gra":"Possibly damaged","det_method":"Photo-interpretation","notation":"Building point","or_src_id":978,"dmg_src_id":2,"cd_value":"Not Applicable"},"geometry":{"type":"Point","coordinates":[-76.5001065,3.48495638]}},{"type":"Feature","properties":{"obj_type":"11-Residential Buildings","name":"Unknown","info":"997-Not Applicable","simplified":"Residential","damage_gra":"Damaged","det_method":"Photo-interpretation","notation":"Building point","or_src_id":978,"dmg_src_id":2,"cd_value":"Not Applicable"},"geometry":{"type":"Point","coordinates":[-76.49234683,3.50326891]}},{"type":"Feature","properties":{"obj_type":"11-Residential Buildings","name":"Unknown","info":"997-Not Applicable","simplified":"Residential","damage_gra":"Possibly damaged","det_method":"Photo-interpretation","notation":"Building point","or_src_id":978,"dmg_src_id":2,"cd_value":"Not Applicable"},"geometry":{"type":"Point","coordinates":[-76.49239853,3.50327375]}},{"type":"Feature","properties":{"obj_type":"11-Residential Buildings","name":"Unknown","info":"997-Not Applicable","simplified":"Residential","damage_gra":"Damaged","det_method":"Photo-interpretation","notation":"Building point","or_src_id":978,"dmg_src_id":2,"cd_value":"Not Applicable"},"geometry":{"type":"Point","coordinates":[-76.4939362,3.50511072]}}]}