{"type":"FeatureCollection","name":"EMSR916_AOI02_GRA_PRODUCT_builtUpP_v1","crs":{"type":"name","properties":{"name":"urn:ogc:def:crs:OGC:1.3:CRS84"}},"features":[{"type":"Feature","properties":{"obj_type":"11-Residential Buildings","name":"Unknown","info":"997-Not Applicable","simplified":"Residential","damage_gra":"Destroyed","det_method":"Photo-interpretation","notation":"Building point","or_src_id":2,"dmg_src_id":2,"cd_value":"Not Applicable"},"geometry":{"type":"Point","coordinates":[-75.68983027,4.79198791]}},{"type":"Feature","properties":{"obj_type":"11-Residential Buildings","name":"Unknown","info":"997-Not Applicable","simplified":"Residential","damage_gra":"Damaged","det_method":"Photo-interpretation","notation":"Building point","or_src_id":2,"dmg_src_id":2,"cd_value":"Not Applicable"},"geometry":{"type":"Point","coordinates":[-75.69018729,4.79674206]}},{"type":"Feature","properties":{"obj_type":"11-Residential Buildings","name":"Unknown","info":"997-Not Applicable","simplified":"Residential","damage_gra":"Destroyed","det_method":"Photo-interpretation","notation":"Building point","or_src_id":2,"dmg_src_id":2,"cd_value":"Not Applicable"},"geometry":{"type":"Point","coordinates":[-75.69026533,4.7969747]}},{"type":"Feature","properties":{"obj_type":"11-Residential Buildings","name":"Unknown","info":"997-Not Applicable","simplified":"Residential","damage_gra":"Destroyed","det_method":"Photo-interpretation","notation":"Building point","or_src_id":2,"dmg_src_id":2,"cd_value":"Not Applicable"},"geometry":{"type":"Point","coordinates":[-75.69021669,4.79701597]}},{"type":"Feature","properties":{"obj_type":"11-Residential Buildings","name":"Unknown","info":"997-Not Applicable","simplified":"Residential","damage_gra":"Destroyed","det_method":"Photo-interpretation","notation":"Building point","or_src_id":2,"dmg_src_id":2,"cd_value":"Not Applicable"},"geometry":{"type":"Point","coordinates":[-75.69030956,4.79701892]}},{"type":"Feature","properties":{"obj_type":"11-Residential Buildings","name":"Unknown","info":"997-Not Applicable","simplified":"Residential","damage_gra":"Destroyed","det_method":"Photo-interpretation","notation":"Building point","or_src_id":2,"dmg_src_id":2,"cd_value":"Not Applicable"},"geometry":{"type":"Point","coordinates":[-75.69035083,4.79704988]}},{"type":"Feature","properties":{"obj_type":"11-Residential Buildings","name":"Unknown","info":"997-Not Applicable","simplified":"Residential","damage_gra":"Destroyed","det_method":"Photo-interpretation","notation":"Building point","or_src_id":2,"dmg_src_id":2,"cd_value":"Not Applicable"},"geometry":{"type":"Point","coordinates":[-75.69025354,4.79705135]}},{"type":"Feature","properties":{"obj_type":"11-Residential Buildings","name":"Unknown","info":"997-Not Applicable","simplified":"Residential","damage_gra":"Destroyed","det_method":"Photo-interpretation","notation":"Building point","or_src_id":2,"dmg_src_id":2,"cd_value":"Not Applicable"},"geometry":{"type":"Point","coordinates":[-75.69030071,4.79706462]}},{"type":"Feature","properties":{"obj_type":"11-Residential Buildings","name":"Unknown","info":"997-Not Applicable","simplified":"Residential","damage_gra":"Damaged","det_method":"Photo-interpretation","notation":"Building point","or_src_id":2,"dmg_src_id":2,"cd_value":"Not Applicable"},"geometry":{"type":"Point","coordinates":[-75.69029482,4.79711622]}},{"type":"Feature","properties":{"obj_type":"11-Residential Buildings","name":"Unknown","info":"997-Not Applicable","simplified":"Residential","damage_gra":"Destroyed","det_method":"Photo-interpretation","notation":"Building point","or_src_id":2,"dmg_src_id":2,"cd_value":"Not Applicable"},"geometry":{"type":"Point","coordinates":[-75.69271869,4.80589334]}},{"type":"Feature","properties":{"obj_type":"11-Residential Buildings","name":"Unknown","info":"997-Not Applicable","simplified":"Residential","damage_gra":"Damaged","det_method":"Photo-interpretation","notation":"Building point","or_src_id":2,"dmg_src_id":2,"cd_value":"Not Applicable"},"geometry":{"type":"Point","coordinates":[-75.69427253,4.80582029]}},{"type":"Feature","properties":{"obj_type":"11-Residential Buildings","name":"Unknown","info":"997-Not Applicable","simplified":"Residential","damage_gra":"Damaged","det_method":"Photo-interpretation","notation":"Building point","or_src_id":2,"dmg_src_id":2,"cd_value":"Not Applicable"},"geometry":{"type":"Point","coordinates":[-75.69443945,4.80584113]}},{"type":"Feature","properties":{"obj_type":"11-Residential Buildings","name":"Unknown","info":"997-Not Applicable","simplified":"Residential","damage_gra":"Destroyed","det_method":"Photo-interpretation","notation":"Building point","or_src_id":2,"dmg_src_id":2,"cd_value":"Not Applicable"},"geometry":{"type":"Point","coordinates":[-75.69624976,4.80597165]}},{"type":"Feature","properties":{"obj_type":"11-Residential Buildings","name":"Unknown","info":"997-Not Applicable","simplified":"Residential","damage_gra":"Destroyed","det_method":"Photo-interpretation","notation":"Building point","or_src_id":2,"dmg_src_id":2,"cd_value":"Not Applicable"},"geometry":{"type":"Point","coordinates":[-75.6966206,4.8060039]}},{"type":"Feature","properties":{"obj_type":"11-Residential Buildings","name":"Unknown","info":"997-Not Applicable","simplified":"Residential","damage_gra":"Destroyed","det_method":"Photo-interpretation","notation":"Building point","or_src_id":2,"dmg_src_id":2,"cd_value":"Not Applicable"},"geometry":{"type":"Point","coordinates":[-75.69621751,4.80619508]}},{"type":"Feature","properties":{"obj_type":"11-Residential Buildings","name":"Unknown","info":"997-Not Applicable","simplified":"Residential","damage_gra":"Destroyed","det_method":"Photo-interpretation","notation":"Building point","or_src_id":2,"dmg_src_id":2,"cd_value":"Not Applicable"},"geometry":{"type":"Point","coordinates":[-75.69636032,4.80629182]}},{"type":"Feature","properties":{"obj_type":"11-Residential Buildings","name":"Unknown","info":"997-Not Applicable","simplified":"Residential","damage_gra":"Destroyed","det_method":"Photo-interpretation","notation":"Building point","or_src_id":2,"dmg_src_id":2,"cd_value":"Not Applicable"},"geometry":{"type":"Point","coordinates":[-75.69674498,4.80637013]}},{"type":"Feature","properties":{"obj_type":"11-Residential Buildings","name":"Unknown","info":"997-Not Applicable","simplified":"Residential","damage_gra":"Destroyed","det_method":"Photo-interpretation","notation":"Building point","or_src_id":2,"dmg_src_id":2,"cd_value":"Not Applicable"},"geometry":{"type":"Point","coordinates":[-75.69274339,4.80666579]}},{"type":"Feature","properties":{"obj_type":"11-Residential Buildings","name":"Unknown","info":"997-Not Applicable","simplified":"Residential","damage_gra":"Destroyed","det_method":"Photo-interpretation","notation":"Building point","or_src_id":2,"dmg_src_id":2,"cd_value":"Not Applicable"},"geometry":{"type":"Point","coordinates":[-75.69284363,4.80667316]}},{"type":"Feature","properties":{"obj_type":"11-Residential Buildings","name":"Unknown","info":"997-Not Applicable","simplified":"Residential","damage_gra":"Damaged","det_method":"Photo-interpretation","notation":"Building point","or_src_id":2,"dmg_src_id":2,"cd_value":"Not Applicable"},"geometry":{"type":"Point","coordinates":[-75.69588186,4.80689281]}},{"type":"Feature","properties":{"obj_type":"11-Residential Buildings","name":"Unknown","info":"997-Not Applicable","simplified":"Residential","damage_gra":"Damaged","det_method":"Photo-interpretation","notation":"Building point","or_src_id":2,"dmg_src_id":2,"cd_value":"Not Applicable"},"geometry":{"type":"Point","coordinates":[-75.69250448,4.80649452]}},{"type":"Feature","properties":{"obj_type":"11-Residential Buildings","name":"Unknown","info":"997-Not Applicable","simplified":"Residential","damage_gra":"Damaged","det_method":"Photo-interpretation","notation":"Building point","or_src_id":2,"dmg_src_id":2,"cd_value":"Not Applicable"},"geometry":{"type":"Point","coordinates":[-75.69249296,4.8065544]}},{"type":"Feature","properties":{"obj_type":"11-Residential Buildings","name":"Unknown","info":"997-Not Applicable","simplified":"Residential","damage_gra":"Damaged","det_method":"Photo-interpretation","notation":"Building point","or_src_id":2,"dmg_src_id":2,"cd_value":"Not Applicable"},"geometry":{"type":"Point","coordinates":[-75.68999381,4.80788575]}},{"type":"Feature","properties":{"obj_type":"11-Residential Buildings","name":"Unknown","info":"997-Not Applicable","simplified":"Residential","damage_gra":"Damaged","det_method":"Photo-interpretation","notation":"Building point","or_src_id":2,"dmg_src_id":2,"cd_value":"Not Applicable"},"geometry":{"type":"Point","coordinates":[-75.69009286,4.80791109]}},{"type":"Feature","properties":{"obj_type":"11-Residential Buildings","name":"Unknown","info":"997-Not Applicable","simplified":"Residential","damage_gra":"Damaged","det_method":"Photo-interpretation","notation":"Building point","or_src_id":2,"dmg_src_id":2,"cd_value":"Not Applicable"},"geometry":{"type":"Point","coordinates":[-75.69250679,4.80816906]}},{"type":"Feature","properties":{"obj_type":"11-Residential Buildings","name":"Unknown","info":"997-Not Applicable","simplified":"Residential","damage_gra":"Destroyed","det_method":"Photo-interpretation","notation":"Building point","or_src_id":2,"dmg_src_id":2,"cd_value":"Not Applicable"},"geometry":{"type":"Point","coordinates":[-75.69250551,4.80855113]}},{"type":"Feature","properties":{"obj_type":"11-Residential Buildings","name":"Unknown","info":"997-Not Applicable","simplified":"Residential","damage_gra":"Destroyed","det_method":"Photo-interpretation","notation":"Building point","or_src_id":2,"dmg_src_id":2,"cd_value":"Not Applicable"},"geometry":{"type":"Point","coordinates":[-75.6924983,4.80867932]}},{"type":"Feature","properties":{"obj_type":"11-Residential Buildings","name":"Unknown","info":"997-Not Applicable","simplified":"Residential","damage_gra":"Destroyed","det_method":"Photo-interpretation","notation":"Building point","or_src_id":2,"dmg_src_id":2,"cd_value":"Not Applicable"},"geometry":{"type":"Point","coordinates":[-75.69110185,4.80868952]}},{"type":"Feature","properties":{"obj_type":"11-Residential Buildings","name":"Unknown","info":"997-Not Applicable","simplified":"Residential","damage_gra":"Damaged","det_method":"Photo-interpretation","notation":"Building point","or_src_id":2,"dmg_src_id":2,"cd_value":"Not Applicable"},"geometry":{"type":"Point","coordinates":[-75.68947632,4.80914862]}},{"type":"Feature","properties":{"obj_type":"11-Residential Buildings","name":"Unknown","info":"997-Not Applicable","simplified":"Residential","damage_gra":"Damaged","det_method":"Photo-interpretation","notation":"Building point","or_src_id":2,"dmg_src_id":2,"cd_value":"Not Applicable"},"geometry":{"type":"Point","coordinates":[-75.68959054,4.80915302]}},{"type":"Feature","properties":{"obj_type":"11-Residential Buildings","name":"Unknown","info":"997-Not Applicable","simplified":"Residential","damage_gra":"Destroyed","det_method":"Photo-interpretation","notation":"Building point","or_src_id":2,"dmg_src_id":2,"cd_value":"Not Applicable"},"geometry":{"type":"Point","coordinates":[-75.68862333,4.80767632]}},{"type":"Feature","properties":{"obj_type":"11-Residential Buildings","name":"Unknown","info":"997-Not Applicable","simplified":"Residential","damage_gra":"Damaged","det_method":"Photo-interpretation","notation":"Building point","or_src_id":2,"dmg_src_id":2,"cd_value":"Not Applicable"},"geometry":{"type":"Point","coordinates":[-75.68836072,4.80782586]}},{"type":"Feature","properties":{"obj_type":"11-Residential Buildings","name":"Unknown","info":"997-Not Applicable","simplified":"Residential","damage_gra":"Damaged","det_method":"Photo-interpretation","notation":"Building point","or_src_id":2,"dmg_src_id":2,"cd_value":"Not Applicable"},"geometry":{"type":"Point","coordinates":[-75.68389962,4.80913262]}},{"type":"Feature","properties":{"obj_type":"11-Residential Buildings","name":"Unknown","info":"997-Not Applicable","simplified":"Residential","damage_gra":"Damaged","det_method":"Photo-interpretation","notation":"Building point","or_src_id":2,"dmg_src_id":2,"cd_value":"Not Applicable"},"geometry":{"type":"Point","coordinates":[-75.68491266,4.80920354]}},{"type":"Feature","properties":{"obj_type":"11-Residential Buildings","name":"Unknown","info":"997-Not Applicable","simplified":"Residential","damage_gra":"Damaged","det_method":"Photo-interpretation","notation":"Building point","or_src_id":2,"dmg_src_id":2,"cd_value":"Not Applicable"},"geometry":{"type":"Point","coordinates":[-75.68872945,4.80924308]}},{"type":"Feature","properties":{"obj_type":"11-Residential Buildings","name":"Unknown","info":"997-Not Applicable","simplified":"Residential","damage_gra":"Destroyed","det_method":"Photo-interpretation","notation":"Building point","or_src_id":2,"dmg_src_id":2,"cd_value":"Not Applicable"},"geometry":{"type":"Point","coordinates":[-75.68929619,4.80932875]}},{"type":"Feature","properties":{"obj_type":"11-Residential Buildings","name":"Unknown","info":"997-Not Applicable","simplified":"Residential","damage_gra":"Destroyed","det_method":"Photo-interpretation","notation":"Building point","or_src_id":2,"dmg_src_id":2,"cd_value":"Not Applicable"},"geometry":{"type":"Point","coordinates":[-75.6881034,4.8093639]}},{"type":"Feature","properties":{"obj_type":"11-Residential Buildings","name":"Unknown","info":"997-Not Applicable","simplified":"Residential","damage_gra":"Destroyed","det_method":"Photo-interpretation","notation":"Building point","or_src_id":2,"dmg_src_id":2,"cd_value":"Not Applicable"},"geometry":{"type":"Point","coordinates":[-75.68622332,4.80938031]}},{"type":"Feature","properties":{"obj_type":"11-Residential Buildings","name":"Unknown","info":"997-Not Applicable","simplified":"Residential","damage_gra":"Destroyed","det_method":"Photo-interpretation","notation":"Building point","or_src_id":2,"dmg_src_id":2,"cd_value":"Not Applicable"},"geometry":{"type":"Point","coordinates":[-75.68645186,4.80938679]}},{"type":"Feature","properties":{"obj_type":"11-Residential Buildings","name":"Unknown","info":"997-Not Applicable","simplified":"Residential","damage_gra":"Destroyed","det_method":"Photo-interpretation","notation":"Building point","or_src_id":2,"dmg_src_id":2,"cd_value":"Not Applicable"},"geometry":{"type":"Point","coordinates":[-75.68648265,4.80939652]}},{"type":"Feature","properties":{"obj_type":"11-Residential Buildings","name":"Unknown","info":"997-Not Applicable","simplified":"Residential","damage_gra":"Destroyed","det_method":"Photo-interpretation","notation":"Building point","or_src_id":2,"dmg_src_id":2,"cd_value":"Not Applicable"},"geometry":{"type":"Point","coordinates":[-75.69431189,4.8070417]}},{"type":"Feature","properties":{"obj_type":"11-Residential Buildings","name":"Unknown","info":"997-Not Applicable","simplified":"Residential","damage_gra":"Destroyed","det_method":"Photo-interpretation","notation":"Building point","or_src_id":2,"dmg_src_id":2,"cd_value":"Not Applicable"},"geometry":{"type":"Point","coordinates":[-75.69572419,4.80724137]}},{"type":"Feature","properties":{"obj_type":"11-Residential Buildings","name":"Unknown","info":"997-Not Applicable","simplified":"Residential","damage_gra":"Damaged","det_method":"Photo-interpretation","notation":"Building point","or_src_id":2,"dmg_src_id":2,"cd_value":"Not Applicable"},"geometry":{"type":"Point","coordinates":[-75.69353869,4.80733524]}},{"type":"Feature","properties":{"obj_type":"11-Residential Buildings","name":"Unknown","info":"997-Not Applicable","simplified":"Residential","damage_gra":"Damaged","det_method":"Photo-interpretation","notation":"Building point","or_src_id":2,"dmg_src_id":2,"cd_value":"Not Applicable"},"geometry":{"type":"Point","coordinates":[-75.69360088,4.80739744]}},{"type":"Feature","properties":{"obj_type":"11-Residential Buildings","name":"Unknown","info":"997-Not Applicable","simplified":"Residential","damage_gra":"Damaged","det_method":"Photo-interpretation","notation":"Building point","or_src_id":2,"dmg_src_id":2,"cd_value":"Not Applicable"},"geometry":{"type":"Point","coordinates":[-75.69447156,4.80885777]}},{"type":"Feature","properties":{"obj_type":"11-Residential Buildings","name":"Unknown","info":"997-Not Applicable","simplified":"Residential","damage_gra":"Destroyed","det_method":"Photo-interpretation","notation":"Building point","or_src_id":2,"dmg_src_id":2,"cd_value":"Not Applicable"},"geometry":{"type":"Point","coordinates":[-75.69316324,4.81007165]}},{"type":"Feature","properties":{"obj_type":"11-Residential Buildings","name":"Unknown","info":"997-Not Applicable","simplified":"Residential","damage_gra":"Damaged","det_method":"Photo-interpretation","notation":"Building point","or_src_id":2,"dmg_src_id":2,"cd_value":"Not Applicable"},"geometry":{"type":"Point","coordinates":[-75.69485861,4.81074521]}},{"type":"Feature","properties":{"obj_type":"11-Residential Buildings","name":"Unknown","info":"997-Not Applicable","simplified":"Residential","damage_gra":"Damaged","det_method":"Photo-interpretation","notation":"Building point","or_src_id":2,"dmg_src_id":2,"cd_value":"Not Applicable"},"geometry":{"type":"Point","coordinates":[-75.69483088,4.8109953]}},{"type":"Feature","properties":{"obj_type":"11-Residential Buildings","name":"Unknown","info":"997-Not Applicable","simplified":"Residential","damage_gra":"Damaged","det_method":"Photo-interpretation","notation":"Building point","or_src_id":2,"dmg_src_id":2,"cd_value":"Not Applicable"},"geometry":{"type":"Point","coordinates":[-75.69528695,4.81103215]}},{"type":"Feature","properties":{"obj_type":"11-Residential Buildings","name":"Unknown","info":"997-Not Applicable","simplified":"Residential","damage_gra":"Damaged","det_method":"Photo-interpretation","notation":"Building point","or_src_id":2,"dmg_src_id":2,"cd_value":"Not Applicable"},"geometry":{"type":"Point","coordinates":[-75.69441628,4.81141451]}},{"type":"Feature","properties":{"obj_type":"11-Residential Buildings","name":"Unknown","info":"997-Not Applicable","simplified":"Residential","damage_gra":"Destroyed","det_method":"Photo-interpretation","notation":"Building point","or_src_id":2,"dmg_src_id":2,"cd_value":"Not Applicable"},"geometry":{"type":"Point","coordinates":[-75.68651831,4.80939814]}},{"type":"Feature","properties":{"obj_type":"11-Residential Buildings","name":"Unknown","info":"997-Not Applicable","simplified":"Residential","damage_gra":"Possibly damaged","det_method":"Photo-interpretation","notation":"Building point","or_src_id":2,"dmg_src_id":2,"cd_value":"Not Applicable"},"geometry":{"type":"Point","coordinates":[-75.68908751,4.8094298]}},{"type":"Feature","properties":{"obj_type":"11-Residential Buildings","name":"Unknown","info":"997-Not Applicable","simplified":"Residential","damage_gra":"Damaged","det_method":"Photo-interpretation","notation":"Building point","or_src_id":2,"dmg_src_id":2,"cd_value":"Not Applicable"},"geometry":{"type":"Point","coordinates":[-75.68710215,4.81033642]}},{"type":"Feature","properties":{"obj_type":"11-Residential Buildings","name":"Unknown","info":"997-Not Applicable","simplified":"Residential","damage_gra":"Damaged","det_method":"Photo-interpretation","notation":"Building point","or_src_id":2,"dmg_src_id":2,"cd_value":"Not Applicable"},"geometry":{"type":"Point","coordinates":[-75.68863499,4.81051715]}},{"type":"Feature","properties":{"obj_type":"11-Residential Buildings","name":"Unknown","info":"997-Not Applicable","simplified":"Residential","damage_gra":"Destroyed","det_method":"Photo-interpretation","notation":"Building point","or_src_id":2,"dmg_src_id":2,"cd_value":"Not Applicable"},"geometry":{"type":"Point","coordinates":[-75.68467713,4.81084211]}},{"type":"Feature","properties":{"obj_type":"11-Residential Buildings","name":"Unknown","info":"997-Not Applicable","simplified":"Residential","damage_gra":"Destroyed","det_method":"Photo-interpretation","notation":"Building point","or_src_id":2,"dmg_src_id":2,"cd_value":"Not Applicable"},"geometry":{"type":"Point","coordinates":[-75.6849709,4.81095608]}},{"type":"Feature","properties":{"obj_type":"11-Residential Buildings","name":"Unknown","info":"997-Not Applicable","simplified":"Residential","damage_gra":"Damaged","det_method":"Photo-interpretation","notation":"Building point","or_src_id":2,"dmg_src_id":2,"cd_value":"Not Applicable"},"geometry":{"type":"Point","coordinates":[-75.68871407,4.81132991]}},{"type":"Feature","properties":{"obj_type":"11-Residential Buildings","name":"Unknown","info":"997-Not Applicable","simplified":"Residential","damage_gra":"Damaged","det_method":"Photo-interpretation","notation":"Building point","or_src_id":2,"dmg_src_id":2,"cd_value":"Not Applicable"},"geometry":{"type":"Point","coordinates":[-75.68930058,4.8114024]}},{"type":"Feature","properties":{"obj_type":"11-Residential Buildings","name":"Unknown","info":"997-Not Applicable","simplified":"Residential","damage_gra":"Damaged","det_method":"Photo-interpretation","notation":"Building point","or_src_id":2,"dmg_src_id":2,"cd_value":"Not Applicable"},"geometry":{"type":"Point","coordinates":[-75.68900201,4.81176781]}},{"type":"Feature","properties":{"obj_type":"11-Residential Buildings","name":"Unknown","info":"997-Not Applicable","simplified":"Residential","damage_gra":"Damaged","det_method":"Photo-interpretation","notation":"Building point","or_src_id":2,"dmg_src_id":2,"cd_value":"Not Applicable"},"geometry":{"type":"Point","coordinates":[-75.68910288,4.81177803]}},{"type":"Feature","properties":{"obj_type":"11-Residential Buildings","name":"Unknown","info":"997-Not Applicable","simplified":"Residential","damage_gra":"Destroyed","det_method":"Photo-interpretation","notation":"Building point","or_src_id":2,"dmg_src_id":2,"cd_value":"Not Applicable"},"geometry":{"type":"Point","coordinates":[-75.69242863,4.80939465]}},{"type":"Feature","properties":{"obj_type":"11-Residential Buildings","name":"Unknown","info":"997-Not Applicable","simplified":"Residential","damage_gra":"Damaged","det_method":"Photo-interpretation","notation":"Building point","or_src_id":2,"dmg_src_id":2,"cd_value":"Not Applicable"},"geometry":{"type":"Point","coordinates":[-75.6923825,4.80947153]}},{"type":"Feature","properties":{"obj_type":"11-Residential Buildings","name":"Unknown","info":"997-Not Applicable","simplified":"Residential","damage_gra":"Possibly damaged","det_method":"Photo-interpretation","notation":"Building point","or_src_id":2,"dmg_src_id":2,"cd_value":"Not Applicable"},"geometry":{"type":"Point","coordinates":[-75.69174766,4.80980982]}},{"type":"Feature","properties":{"obj_type":"11-Residential Buildings","name":"Unknown","info":"997-Not Applicable","simplified":"Residential","damage_gra":"Possibly damaged","det_method":"Photo-interpretation","notation":"Building point","or_src_id":2,"dmg_src_id":2,"cd_value":"Not Applicable"},"geometry":{"type":"Point","coordinates":[-75.69184212,4.80981861]}},{"type":"Feature","properties":{"obj_type":"11-Residential Buildings","name":"Unknown","info":"997-Not Applicable","simplified":"Residential","damage_gra":"Damaged","det_method":"Photo-interpretation","notation":"Building point","or_src_id":2,"dmg_src_id":2,"cd_value":"Not Applicable"},"geometry":{"type":"Point","coordinates":[-75.68930058,4.81052593]}},{"type":"Feature","properties":{"obj_type":"11-Residential Buildings","name":"Unknown","info":"997-Not Applicable","simplified":"Residential","damage_gra":"Destroyed","det_method":"Photo-interpretation","notation":"Building point","or_src_id":2,"dmg_src_id":2,"cd_value":"Not Applicable"},"geometry":{"type":"Point","coordinates":[-75.68941261,4.81055449]}},{"type":"Feature","properties":{"obj_type":"11-Residential Buildings","name":"Unknown","info":"997-Not Applicable","simplified":"Residential","damage_gra":"Damaged","det_method":"Photo-interpretation","notation":"Building point","or_src_id":2,"dmg_src_id":2,"cd_value":"Not Applicable"},"geometry":{"type":"Point","coordinates":[-75.68975529,4.81065554]}},{"type":"Feature","properties":{"obj_type":"11-Residential Buildings","name":"Unknown","info":"997-Not Applicable","simplified":"Residential","damage_gra":"Damaged","det_method":"Photo-interpretation","notation":"Building point","or_src_id":2,"dmg_src_id":2,"cd_value":"Not Applicable"},"geometry":{"type":"Point","coordinates":[-75.68953563,4.81174069]}},{"type":"Feature","properties":{"obj_type":"11-Residential Buildings","name":"Unknown","info":"997-Not Applicable","simplified":"Residential","damage_gra":"Destroyed","det_method":"Photo-interpretation","notation":"Building point","or_src_id":2,"dmg_src_id":2,"cd_value":"Not Applicable"},"geometry":{"type":"Point","coordinates":[-75.69098323,4.81246119]}},{"type":"Feature","properties":{"obj_type":"11-Residential Buildings","name":"Unknown","info":"997-Not Applicable","simplified":"Residential","damage_gra":"Destroyed","det_method":"Photo-interpretation","notation":"Building point","or_src_id":2,"dmg_src_id":2,"cd_value":"Not Applicable"},"geometry":{"type":"Point","coordinates":[-75.69025833,4.81274236]}},{"type":"Feature","properties":{"obj_type":"11-Residential Buildings","name":"Unknown","info":"997-Not Applicable","simplified":"Residential","damage_gra":"Damaged","det_method":"Photo-interpretation","notation":"Building point","or_src_id":2,"dmg_src_id":2,"cd_value":"Not Applicable"},"geometry":{"type":"Point","coordinates":[-75.68840654,4.81254027]}},{"type":"Feature","properties":{"obj_type":"11-Residential Buildings","name":"Unknown","info":"997-Not Applicable","simplified":"Residential","damage_gra":"Damaged","det_method":"Photo-interpretation","notation":"Building point","or_src_id":2,"dmg_src_id":2,"cd_value":"Not Applicable"},"geometry":{"type":"Point","coordinates":[-75.6891578,4.81257542]}},{"type":"Feature","properties":{"obj_type":"11-Residential Buildings","name":"Unknown","info":"997-Not Applicable","simplified":"Residential","damage_gra":"Damaged","det_method":"Photo-interpretation","notation":"Building point","or_src_id":2,"dmg_src_id":2,"cd_value":"Not Applicable"},"geometry":{"type":"Point","coordinates":[-75.68839556,4.81268964]}},{"type":"Feature","properties":{"obj_type":"11-Residential Buildings","name":"Unknown","info":"997-Not Applicable","simplified":"Residential","damage_gra":"Destroyed","det_method":"Photo-interpretation","notation":"Building point","or_src_id":2,"dmg_src_id":2,"cd_value":"Not Applicable"},"geometry":{"type":"Point","coordinates":[-75.68707102,4.81270467]}},{"type":"Feature","properties":{"obj_type":"11-Residential Buildings","name":"Unknown","info":"997-Not Applicable","simplified":"Residential","damage_gra":"Damaged","det_method":"Photo-interpretation","notation":"Building point","or_src_id":2,"dmg_src_id":2,"cd_value":"Not Applicable"},"geometry":{"type":"Point","coordinates":[-75.68880633,4.81289174]}},{"type":"Feature","properties":{"obj_type":"11-Residential Buildings","name":"Unknown","info":"997-Not Applicable","simplified":"Residential","damage_gra":"Destroyed","det_method":"Photo-interpretation","notation":"Building point","or_src_id":2,"dmg_src_id":2,"cd_value":"Not Applicable"},"geometry":{"type":"Point","coordinates":[-75.68877997,4.81312678]}},{"type":"Feature","properties":{"obj_type":"11-Residential Buildings","name":"Unknown","info":"997-Not Applicable","simplified":"Residential","damage_gra":"Destroyed","det_method":"Photo-interpretation","notation":"Building point","or_src_id":2,"dmg_src_id":2,"cd_value":"Not Applicable"},"geometry":{"type":"Point","coordinates":[-75.68919407,4.8131343]}},{"type":"Feature","properties":{"obj_type":"11-Residential Buildings","name":"Unknown","info":"997-Not Applicable","simplified":"Residential","damage_gra":"Damaged","det_method":"Photo-interpretation","notation":"Building point","or_src_id":2,"dmg_src_id":2,"cd_value":"Not Applicable"},"geometry":{"type":"Point","coordinates":[-75.68908311,4.81338159]}},{"type":"Feature","properties":{"obj_type":"11-Residential Buildings","name":"Unknown","info":"997-Not Applicable","simplified":"Residential","damage_gra":"Destroyed","det_method":"Photo-interpretation","notation":"Building point","or_src_id":2,"dmg_src_id":2,"cd_value":"Not Applicable"},"geometry":{"type":"Point","coordinates":[-75.68656856,4.81369339]}},{"type":"Feature","properties":{"obj_type":"11-Residential Buildings","name":"Unknown","info":"997-Not Applicable","simplified":"Residential","damage_gra":"Damaged","det_method":"Photo-interpretation","notation":"Building point","or_src_id":2,"dmg_src_id":2,"cd_value":"Not Applicable"},"geometry":{"type":"Point","coordinates":[-75.68828792,4.81493463]}},{"type":"Feature","properties":{"obj_type":"11-Residential Buildings","name":"Unknown","info":"997-Not Applicable","simplified":"Residential","damage_gra":"Destroyed","det_method":"Photo-interpretation","notation":"Building point","or_src_id":2,"dmg_src_id":2,"cd_value":"Not Applicable"},"geometry":{"type":"Point","coordinates":[-75.69149285,4.81321904]}},{"type":"Feature","properties":{"obj_type":"11-Residential Buildings","name":"Unknown","info":"997-Not Applicable","simplified":"Residential","damage_gra":"Possibly damaged","det_method":"Photo-interpretation","notation":"Building point","or_src_id":2,"dmg_src_id":2,"cd_value":"Not Applicable"},"geometry":{"type":"Point","coordinates":[-75.69045603,4.81325419]}},{"type":"Feature","properties":{"obj_type":"11-Residential Buildings","name":"Unknown","info":"997-Not Applicable","simplified":"Residential","damage_gra":"Damaged","det_method":"Photo-interpretation","notation":"Building point","or_src_id":2,"dmg_src_id":2,"cd_value":"Not Applicable"},"geometry":{"type":"Point","coordinates":[-75.69111503,4.81327835]}},{"type":"Feature","properties":{"obj_type":"11-Residential Buildings","name":"Unknown","info":"997-Not Applicable","simplified":"Residential","damage_gra":"Destroyed","det_method":"Photo-interpretation","notation":"Building point","or_src_id":2,"dmg_src_id":2,"cd_value":"Not Applicable"},"geometry":{"type":"Point","coordinates":[-75.69149944,4.813375]}},{"type":"Feature","properties":{"obj_type":"11-Residential Buildings","name":"Unknown","info":"997-Not Applicable","simplified":"Residential","damage_gra":"Damaged","det_method":"Photo-interpretation","notation":"Building point","or_src_id":2,"dmg_src_id":2,"cd_value":"Not Applicable"},"geometry":{"type":"Point","coordinates":[-75.69269499,4.81353765]}},{"type":"Feature","properties":{"obj_type":"11-Residential Buildings","name":"Unknown","info":"997-Not Applicable","simplified":"Residential","damage_gra":"Damaged","det_method":"Photo-interpretation","notation":"Building point","or_src_id":2,"dmg_src_id":2,"cd_value":"Not Applicable"},"geometry":{"type":"Point","coordinates":[-75.69013751,4.81405597]}},{"type":"Feature","properties":{"obj_type":"11-Residential Buildings","name":"Unknown","info":"997-Not Applicable","simplified":"Residential","damage_gra":"Damaged","det_method":"Photo-interpretation","notation":"Building point","or_src_id":2,"dmg_src_id":2,"cd_value":"Not Applicable"},"geometry":{"type":"Point","coordinates":[-75.6898585,4.81623455]}},{"type":"Feature","properties":{"obj_type":"11-Residential Buildings","name":"Unknown","info":"997-Not Applicable","simplified":"Residential","damage_gra":"Possibly damaged","det_method":"Photo-interpretation","notation":"Building point","or_src_id":2,"dmg_src_id":2,"cd_value":"Not Applicable"},"geometry":{"type":"Point","coordinates":[-75.68815612,4.81576937]}},{"type":"Feature","properties":{"obj_type":"11-Residential Buildings","name":"Unknown","info":"997-Not Applicable","simplified":"Residential","damage_gra":"Destroyed","det_method":"Photo-interpretation","notation":"Building point","or_src_id":2,"dmg_src_id":2,"cd_value":"Not Applicable"},"geometry":{"type":"Point","coordinates":[-75.68369155,4.81618302]}},{"type":"Feature","properties":{"obj_type":"11-Residential Buildings","name":"Unknown","info":"997-Not Applicable","simplified":"Residential","damage_gra":"Damaged","det_method":"Photo-interpretation","notation":"Building point","or_src_id":2,"dmg_src_id":2,"cd_value":"Not Applicable"},"geometry":{"type":"Point","coordinates":[-75.6869527,4.81854298]}},{"type":"Feature","properties":{"obj_type":"11-Residential Buildings","name":"Unknown","info":"997-Not Applicable","simplified":"Residential","damage_gra":"Damaged","det_method":"Photo-interpretation","notation":"Building point","or_src_id":2,"dmg_src_id":2,"cd_value":"Not Applicable"},"geometry":{"type":"Point","coordinates":[-75.68715855,4.81860619]}},{"type":"Feature","properties":{"obj_type":"11-Residential Buildings","name":"Unknown","info":"997-Not Applicable","simplified":"Residential","damage_gra":"Possibly damaged","det_method":"Photo-interpretation","notation":"Building point","or_src_id":2,"dmg_src_id":2,"cd_value":"Not Applicable"},"geometry":{"type":"Point","coordinates":[-75.69317623,4.79353295]}},{"type":"Feature","properties":{"obj_type":"11-Residential Buildings","name":"Unknown","info":"997-Not Applicable","simplified":"Residential","damage_gra":"Damaged","det_method":"Photo-interpretation","notation":"Building point","or_src_id":2,"dmg_src_id":2,"cd_value":"Not Applicable"},"geometry":{"type":"Point","coordinates":[-75.69664946,4.80309646]}},{"type":"Feature","properties":{"obj_type":"11-Residential Buildings","name":"Unknown","info":"997-Not Applicable","simplified":"Residential","damage_gra":"Damaged","det_method":"Photo-interpretation","notation":"Building point","or_src_id":2,"dmg_src_id":2,"cd_value":"Not Applicable"},"geometry":{"type":"Point","coordinates":[-75.69650396,4.80334157]}},{"type":"Feature","properties":{"obj_type":"11-Residential Buildings","name":"Unknown","info":"997-Not Applicable","simplified":"Residential","damage_gra":"Destroyed","det_method":"Photo-interpretation","notation":"Building point","or_src_id":2,"dmg_src_id":2,"cd_value":"Not Applicable"},"geometry":{"type":"Point","coordinates":[-75.69449763,4.80540392]}},{"type":"Feature","properties":{"obj_type":"11-Residential Buildings","name":"Unknown","info":"997-Not Applicable","simplified":"Residential","damage_gra":"Destroyed","det_method":"Photo-interpretation","notation":"Building point","or_src_id":2,"dmg_src_id":2,"cd_value":"Not Applicable"},"geometry":{"type":"Point","coordinates":[-75.69484701,4.80543045]}},{"type":"Feature","properties":{"obj_type":"11-Residential Buildings","name":"Unknown","info":"997-Not Applicable","simplified":"Residential","damage_gra":"Destroyed","det_method":"Photo-interpretation","notation":"Building point","or_src_id":2,"dmg_src_id":2,"cd_value":"Not Applicable"},"geometry":{"type":"Point","coordinates":[-75.6947733,4.80545404]}},{"type":"Feature","properties":{"obj_type":"11-Residential Buildings","name":"Unknown","info":"997-Not Applicable","simplified":"Residential","damage_gra":"Destroyed","det_method":"Photo-interpretation","notation":"Building point","or_src_id":2,"dmg_src_id":2,"cd_value":"Not Applicable"},"geometry":{"type":"Point","coordinates":[-75.69533495,4.80546436]}},{"type":"Feature","properties":{"obj_type":"11-Residential Buildings","name":"Unknown","info":"997-Not Applicable","simplified":"Residential","damage_gra":"Destroyed","det_method":"Photo-interpretation","notation":"Building point","or_src_id":2,"dmg_src_id":2,"cd_value":"Not Applicable"},"geometry":{"type":"Point","coordinates":[-75.69545436,4.8055189]}},{"type":"Feature","properties":{"obj_type":"11-Residential Buildings","name":"Unknown","info":"997-Not Applicable","simplified":"Residential","damage_gra":"Damaged","det_method":"Photo-interpretation","notation":"Building point","or_src_id":2,"dmg_src_id":2,"cd_value":"Not Applicable"},"geometry":{"type":"Point","coordinates":[-75.69427253,4.80556683]}},{"type":"Feature","properties":{"obj_type":"11-Residential Buildings","name":"Unknown","info":"997-Not Applicable","simplified":"Residential","damage_gra":"Damaged","det_method":"Photo-interpretation","notation":"Building point","or_src_id":2,"dmg_src_id":2,"cd_value":"Not Applicable"},"geometry":{"type":"Point","coordinates":[-75.69337727,4.80564568]}},{"type":"Feature","properties":{"obj_type":"11-Residential Buildings","name":"Unknown","info":"997-Not Applicable","simplified":"Residential","damage_gra":"Damaged","det_method":"Photo-interpretation","notation":"Building point","or_src_id":2,"dmg_src_id":2,"cd_value":"Not Applicable"},"geometry":{"type":"Point","coordinates":[-75.69781668,4.7995189]}},{"type":"Feature","properties":{"obj_type":"11-Residential Buildings","name":"Unknown","info":"997-Not Applicable","simplified":"Residential","damage_gra":"Damaged","det_method":"Photo-interpretation","notation":"Building point","or_src_id":2,"dmg_src_id":2,"cd_value":"Not Applicable"},"geometry":{"type":"Point","coordinates":[-75.69776809,4.79954979]}},{"type":"Feature","properties":{"obj_type":"11-Residential Buildings","name":"Unknown","info":"997-Not Applicable","simplified":"Residential","damage_gra":"Possibly damaged","det_method":"Photo-interpretation","notation":"Building point","or_src_id":2,"dmg_src_id":2,"cd_value":"Not Applicable"},"geometry":{"type":"Point","coordinates":[-75.6979766,4.80006868]}},{"type":"Feature","properties":{"obj_type":"11-Residential Buildings","name":"Unknown","info":"997-Not Applicable","simplified":"Residential","damage_gra":"Damaged","det_method":"Photo-interpretation","notation":"Building point","or_src_id":2,"dmg_src_id":2,"cd_value":"Not Applicable"},"geometry":{"type":"Point","coordinates":[-75.69727641,4.80217404]}},{"type":"Feature","properties":{"obj_type":"11-Residential Buildings","name":"Unknown","info":"997-Not Applicable","simplified":"Residential","damage_gra":"Damaged","det_method":"Photo-interpretation","notation":"Building point","or_src_id":2,"dmg_src_id":2,"cd_value":"Not Applicable"},"geometry":{"type":"Point","coordinates":[-75.69755137,4.80220622]}},{"type":"Feature","properties":{"obj_type":"11-Residential Buildings","name":"Unknown","info":"997-Not Applicable","simplified":"Residential","damage_gra":"Destroyed","det_method":"Photo-interpretation","notation":"Building point","or_src_id":2,"dmg_src_id":2,"cd_value":"Not Applicable"},"geometry":{"type":"Point","coordinates":[-75.69829948,4.80360692]}},{"type":"Feature","properties":{"obj_type":"11-Residential Buildings","name":"Unknown","info":"997-Not Applicable","simplified":"Residential","damage_gra":"Destroyed","det_method":"Photo-interpretation","notation":"Building point","or_src_id":2,"dmg_src_id":2,"cd_value":"Not Applicable"},"geometry":{"type":"Point","coordinates":[-75.69959968,4.80366294]}},{"type":"Feature","properties":{"obj_type":"11-Residential Buildings","name":"Unknown","info":"997-Not Applicable","simplified":"Residential","damage_gra":"Destroyed","det_method":"Photo-interpretation","notation":"Building point","or_src_id":2,"dmg_src_id":2,"cd_value":"Not Applicable"},"geometry":{"type":"Point","coordinates":[-75.69998149,4.80370422]}},{"type":"Feature","properties":{"obj_type":"11-Residential Buildings","name":"Unknown","info":"997-Not Applicable","simplified":"Residential","damage_gra":"Destroyed","det_method":"Photo-interpretation","notation":"Building point","or_src_id":2,"dmg_src_id":2,"cd_value":"Not Applicable"},"geometry":{"type":"Point","coordinates":[-75.69842773,4.80371011]}},{"type":"Feature","properties":{"obj_type":"11-Residential Buildings","name":"Unknown","info":"997-Not Applicable","simplified":"Residential","damage_gra":"Destroyed","det_method":"Photo-interpretation","notation":"Building point","or_src_id":2,"dmg_src_id":2,"cd_value":"Not Applicable"},"geometry":{"type":"Point","coordinates":[-75.69805919,4.80392239]}},{"type":"Feature","properties":{"obj_type":"11-Residential Buildings","name":"Unknown","info":"997-Not Applicable","simplified":"Residential","damage_gra":"Destroyed","det_method":"Photo-interpretation","notation":"Building point","or_src_id":2,"dmg_src_id":2,"cd_value":"Not Applicable"},"geometry":{"type":"Point","coordinates":[-75.69812111,4.80392387]}},{"type":"Feature","properties":{"obj_type":"11-Residential Buildings","name":"Unknown","info":"997-Not Applicable","simplified":"Residential","damage_gra":"Destroyed","det_method":"Photo-interpretation","notation":"Building point","or_src_id":2,"dmg_src_id":2,"cd_value":"Not Applicable"},"geometry":{"type":"Point","coordinates":[-75.69819039,4.80392976]}},{"type":"Feature","properties":{"obj_type":"11-Residential Buildings","name":"Unknown","info":"997-Not Applicable","simplified":"Residential","damage_gra":"Destroyed","det_method":"Photo-interpretation","notation":"Building point","or_src_id":2,"dmg_src_id":2,"cd_value":"Not Applicable"},"geometry":{"type":"Point","coordinates":[-75.69995201,4.80397546]}},{"type":"Feature","properties":{"obj_type":"11-Residential Buildings","name":"Unknown","info":"997-Not Applicable","simplified":"Residential","damage_gra":"Destroyed","det_method":"Photo-interpretation","notation":"Building point","or_src_id":2,"dmg_src_id":2,"cd_value":"Not Applicable"},"geometry":{"type":"Point","coordinates":[-75.6981668,4.80401526]}},{"type":"Feature","properties":{"obj_type":"11-Residential Buildings","name":"Unknown","info":"997-Not Applicable","simplified":"Residential","damage_gra":"Destroyed","det_method":"Photo-interpretation","notation":"Building point","or_src_id":2,"dmg_src_id":2,"cd_value":"Not Applicable"},"geometry":{"type":"Point","coordinates":[-75.69827294,4.80406096]}},{"type":"Feature","properties":{"obj_type":"11-Residential Buildings","name":"Unknown","info":"997-Not Applicable","simplified":"Residential","damage_gra":"Destroyed","det_method":"Photo-interpretation","notation":"Building point","or_src_id":2,"dmg_src_id":2,"cd_value":"Not Applicable"},"geometry":{"type":"Point","coordinates":[-75.69820366,4.80411108]}},{"type":"Feature","properties":{"obj_type":"11-Residential Buildings","name":"Unknown","info":"997-Not Applicable","simplified":"Residential","damage_gra":"Destroyed","det_method":"Photo-interpretation","notation":"Building point","or_src_id":2,"dmg_src_id":2,"cd_value":"Not Applicable"},"geometry":{"type":"Point","coordinates":[-75.69800465,4.80420395]}},{"type":"Feature","properties":{"obj_type":"11-Residential Buildings","name":"Unknown","info":"997-Not Applicable","simplified":"Residential","damage_gra":"Damaged","det_method":"Photo-interpretation","notation":"Building point","or_src_id":2,"dmg_src_id":2,"cd_value":"Not Applicable"},"geometry":{"type":"Point","coordinates":[-75.69808863,4.80422028]}},{"type":"Feature","properties":{"obj_type":"11-Residential Buildings","name":"Unknown","info":"997-Not Applicable","simplified":"Residential","damage_gra":"Destroyed","det_method":"Photo-interpretation","notation":"Building point","or_src_id":2,"dmg_src_id":2,"cd_value":"Not Applicable"},"geometry":{"type":"Point","coordinates":[-75.6978248,4.80452532]}},{"type":"Feature","properties":{"obj_type":"11-Residential Buildings","name":"Unknown","info":"997-Not Applicable","simplified":"Residential","damage_gra":"Destroyed","det_method":"Photo-interpretation","notation":"Building point","or_src_id":2,"dmg_src_id":2,"cd_value":"Not Applicable"},"geometry":{"type":"Point","coordinates":[-75.69787133,4.80624575]}},{"type":"Feature","properties":{"obj_type":"11-Residential Buildings","name":"Unknown","info":"997-Not Applicable","simplified":"Residential","damage_gra":"Damaged","det_method":"Photo-interpretation","notation":"Building point","or_src_id":2,"dmg_src_id":2,"cd_value":"Not Applicable"},"geometry":{"type":"Point","coordinates":[-75.70570745,4.80741546]}},{"type":"Feature","properties":{"obj_type":"11-Residential Buildings","name":"Unknown","info":"997-Not Applicable","simplified":"Residential","damage_gra":"Damaged","det_method":"Photo-interpretation","notation":"Building point","or_src_id":2,"dmg_src_id":2,"cd_value":"Not Applicable"},"geometry":{"type":"Point","coordinates":[-75.70479804,4.80895971]}},{"type":"Feature","properties":{"obj_type":"11-Residential Buildings","name":"Unknown","info":"997-Not Applicable","simplified":"Residential","damage_gra":"Damaged","det_method":"Photo-interpretation","notation":"Building point","or_src_id":2,"dmg_src_id":2,"cd_value":"Not Applicable"},"geometry":{"type":"Point","coordinates":[-75.70473433,4.80911568]}},{"type":"Feature","properties":{"obj_type":"11-Residential Buildings","name":"Unknown","info":"997-Not Applicable","simplified":"Residential","damage_gra":"Damaged","det_method":"Photo-interpretation","notation":"Building point","or_src_id":2,"dmg_src_id":2,"cd_value":"Not Applicable"},"geometry":{"type":"Point","coordinates":[-75.70320042,4.81028525]}},{"type":"Feature","properties":{"obj_type":"11-Residential Buildings","name":"Unknown","info":"997-Not Applicable","simplified":"Residential","damage_gra":"Damaged","det_method":"Photo-interpretation","notation":"Building point","or_src_id":2,"dmg_src_id":2,"cd_value":"Not Applicable"},"geometry":{"type":"Point","coordinates":[-75.70436749,4.81097405]}},{"type":"Feature","properties":{"obj_type":"11-Residential Buildings","name":"Unknown","info":"997-Not Applicable","simplified":"Residential","damage_gra":"Damaged","det_method":"Photo-interpretation","notation":"Building point","or_src_id":2,"dmg_src_id":2,"cd_value":"Not Applicable"},"geometry":{"type":"Point","coordinates":[-75.70427743,4.81120031]}},{"type":"Feature","properties":{"obj_type":"11-Residential Buildings","name":"Unknown","info":"997-Not Applicable","simplified":"Residential","damage_gra":"Damaged","det_method":"Photo-interpretation","notation":"Building point","or_src_id":2,"dmg_src_id":2,"cd_value":"Not Applicable"},"geometry":{"type":"Point","coordinates":[-75.70875203,4.81160889]}},{"type":"Feature","properties":{"obj_type":"11-Residential Buildings","name":"Unknown","info":"997-Not Applicable","simplified":"Residential","damage_gra":"Damaged","det_method":"Photo-interpretation","notation":"Building point","or_src_id":2,"dmg_src_id":2,"cd_value":"Not Applicable"},"geometry":{"type":"Point","coordinates":[-75.70665422,4.81162866]}},{"type":"Feature","properties":{"obj_type":"11-Residential Buildings","name":"Unknown","info":"997-Not Applicable","simplified":"Residential","damage_gra":"Possibly damaged","det_method":"Photo-interpretation","notation":"Building point","or_src_id":2,"dmg_src_id":2,"cd_value":"Not Applicable"},"geometry":{"type":"Point","coordinates":[-75.71162966,4.81354195]}},{"type":"Feature","properties":{"obj_type":"11-Residential Buildings","name":"Unknown","info":"997-Not Applicable","simplified":"Residential","damage_gra":"Possibly damaged","det_method":"Photo-interpretation","notation":"Building point","or_src_id":2,"dmg_src_id":2,"cd_value":"Not Applicable"},"geometry":{"type":"Point","coordinates":[-75.71161208,4.81366057]}},{"type":"Feature","properties":{"obj_type":"11-Residential Buildings","name":"Unknown","info":"997-Not Applicable","simplified":"Residential","damage_gra":"Destroyed","det_method":"Photo-interpretation","notation":"Building point","or_src_id":2,"dmg_src_id":2,"cd_value":"Not Applicable"},"geometry":{"type":"Point","coordinates":[-75.69721026,4.80633789]}},{"type":"Feature","properties":{"obj_type":"11-Residential Buildings","name":"Unknown","info":"997-Not Applicable","simplified":"Residential","damage_gra":"Destroyed","det_method":"Photo-interpretation","notation":"Building point","or_src_id":2,"dmg_src_id":2,"cd_value":"Not Applicable"},"geometry":{"type":"Point","coordinates":[-75.69801349,4.80834338]}},{"type":"Feature","properties":{"obj_type":"11-Residential Buildings","name":"Unknown","info":"997-Not Applicable","simplified":"Residential","damage_gra":"Destroyed","det_method":"Photo-interpretation","notation":"Building point","or_src_id":2,"dmg_src_id":2,"cd_value":"Not Applicable"},"geometry":{"type":"Point","coordinates":[-75.70130812,4.8092482]}},{"type":"Feature","properties":{"obj_type":"11-Residential Buildings","name":"Unknown","info":"997-Not Applicable","simplified":"Residential","damage_gra":"Damaged","det_method":"Photo-interpretation","notation":"Building point","or_src_id":2,"dmg_src_id":2,"cd_value":"Not Applicable"},"geometry":{"type":"Point","coordinates":[-75.69808425,4.80954924]}},{"type":"Feature","properties":{"obj_type":"11-Residential Buildings","name":"Unknown","info":"997-Not Applicable","simplified":"Residential","damage_gra":"Damaged","det_method":"Photo-interpretation","notation":"Building point","or_src_id":2,"dmg_src_id":2,"cd_value":"Not Applicable"},"geometry":{"type":"Point","coordinates":[-75.69752582,4.81434209]}},{"type":"Feature","properties":{"obj_type":"11-Residential Buildings","name":"Unknown","info":"997-Not Applicable","simplified":"Residential","damage_gra":"Destroyed","det_method":"Photo-interpretation","notation":"Building point","or_src_id":2,"dmg_src_id":2,"cd_value":"Not Applicable"},"geometry":{"type":"Point","coordinates":[-75.70106234,4.81453008]}},{"type":"Feature","properties":{"obj_type":"11-Residential Buildings","name":"Unknown","info":"997-Not Applicable","simplified":"Residential","damage_gra":"Damaged","det_method":"Photo-interpretation","notation":"Building point","or_src_id":2,"dmg_src_id":2,"cd_value":"Not Applicable"},"geometry":{"type":"Point","coordinates":[-75.70197589,4.81458727]}},{"type":"Feature","properties":{"obj_type":"11-Residential Buildings","name":"Unknown","info":"997-Not Applicable","simplified":"Residential","damage_gra":"Damaged","det_method":"Photo-interpretation","notation":"Building point","or_src_id":2,"dmg_src_id":2,"cd_value":"Not Applicable"},"geometry":{"type":"Point","coordinates":[-75.6993539,4.81489401]}},{"type":"Feature","properties":{"obj_type":"11-Residential Buildings","name":"Unknown","info":"997-Not Applicable","simplified":"Residential","damage_gra":"Destroyed","det_method":"Photo-interpretation","notation":"Building point","or_src_id":2,"dmg_src_id":2,"cd_value":"Not Applicable"},"geometry":{"type":"Point","coordinates":[-75.69928626,4.815051]}},{"type":"Feature","properties":{"obj_type":"11-Residential Buildings","name":"Unknown","info":"997-Not Applicable","simplified":"Residential","damage_gra":"Destroyed","det_method":"Photo-interpretation","notation":"Building point","or_src_id":2,"dmg_src_id":2,"cd_value":"Not Applicable"},"geometry":{"type":"Point","coordinates":[-75.70204564,4.8158004]}},{"type":"Feature","properties":{"obj_type":"11-Residential Buildings","name":"Unknown","info":"997-Not Applicable","simplified":"Residential","damage_gra":"Destroyed","det_method":"Photo-interpretation","notation":"Building point","or_src_id":2,"dmg_src_id":2,"cd_value":"Not Applicable"},"geometry":{"type":"Point","coordinates":[-75.69384043,4.81153428]}},{"type":"Feature","properties":{"obj_type":"11-Residential Buildings","name":"Unknown","info":"997-Not Applicable","simplified":"Residential","damage_gra":"Destroyed","det_method":"Photo-interpretation","notation":"Building point","or_src_id":2,"dmg_src_id":2,"cd_value":"Not Applicable"},"geometry":{"type":"Point","coordinates":[-75.69375982,4.81156423]}},{"type":"Feature","properties":{"obj_type":"11-Residential Buildings","name":"Unknown","info":"997-Not Applicable","simplified":"Residential","damage_gra":"Destroyed","det_method":"Photo-interpretation","notation":"Building point","or_src_id":2,"dmg_src_id":2,"cd_value":"Not Applicable"},"geometry":{"type":"Point","coordinates":[-75.69382201,4.81160799]}},{"type":"Feature","properties":{"obj_type":"11-Residential Buildings","name":"Unknown","info":"997-Not Applicable","simplified":"Residential","damage_gra":"Damaged","det_method":"Photo-interpretation","notation":"Building point","or_src_id":2,"dmg_src_id":2,"cd_value":"Not Applicable"},"geometry":{"type":"Point","coordinates":[-75.6937828,4.81165491]}},{"type":"Feature","properties":{"obj_type":"11-Residential Buildings","name":"Unknown","info":"997-Not Applicable","simplified":"Residential","damage_gra":"Damaged","det_method":"Photo-interpretation","notation":"Building point","or_src_id":2,"dmg_src_id":2,"cd_value":"Not Applicable"},"geometry":{"type":"Point","coordinates":[-75.69716806,4.8130287]}},{"type":"Feature","properties":{"obj_type":"11-Residential Buildings","name":"Unknown","info":"997-Not Applicable","simplified":"Residential","damage_gra":"Damaged","det_method":"Photo-interpretation","notation":"Building point","or_src_id":2,"dmg_src_id":2,"cd_value":"Not Applicable"},"geometry":{"type":"Point","coordinates":[-75.69530259,4.81323147]}},{"type":"Feature","properties":{"obj_type":"11-Residential Buildings","name":"Unknown","info":"997-Not Applicable","simplified":"Residential","damage_gra":"Destroyed","det_method":"Photo-interpretation","notation":"Building point","or_src_id":2,"dmg_src_id":2,"cd_value":"Not Applicable"},"geometry":{"type":"Point","coordinates":[-75.69320471,4.81445726]}},{"type":"Feature","properties":{"obj_type":"11-Residential Buildings","name":"Unknown","info":"997-Not Applicable","simplified":"Residential","damage_gra":"Damaged","det_method":"Photo-interpretation","notation":"Building point","or_src_id":2,"dmg_src_id":2,"cd_value":"Not Applicable"},"geometry":{"type":"Point","coordinates":[-75.70939345,4.81373965]}},{"type":"Feature","properties":{"obj_type":"11-Residential Buildings","name":"Unknown","info":"997-Not Applicable","simplified":"Residential","damage_gra":"Possibly damaged","det_method":"Photo-interpretation","notation":"Building point","or_src_id":2,"dmg_src_id":2,"cd_value":"Not Applicable"},"geometry":{"type":"Point","coordinates":[-75.71163185,4.81375942]}},{"type":"Feature","properties":{"obj_type":"11-Residential Buildings","name":"Unknown","info":"997-Not Applicable","simplified":"Residential","damage_gra":"Possibly damaged","det_method":"Photo-interpretation","notation":"Building point","or_src_id":2,"dmg_src_id":2,"cd_value":"Not Applicable"},"geometry":{"type":"Point","coordinates":[-75.71165162,4.81386486]}},{"type":"Feature","properties":{"obj_type":"11-Residential Buildings","name":"Unknown","info":"997-Not Applicable","simplified":"Residential","damage_gra":"Damaged","det_method":"Photo-interpretation","notation":"Building point","or_src_id":2,"dmg_src_id":2,"cd_value":"Not Applicable"},"geometry":{"type":"Point","coordinates":[-75.7101535,4.81391319]}},{"type":"Feature","properties":{"obj_type":"11-Residential Buildings","name":"Unknown","info":"997-Not Applicable","simplified":"Residential","damage_gra":"Possibly damaged","det_method":"Photo-interpretation","notation":"Building point","or_src_id":2,"dmg_src_id":2,"cd_value":"Not Applicable"},"geometry":{"type":"Point","coordinates":[-75.70515618,4.81456524]}},{"type":"Feature","properties":{"obj_type":"11-Residential Buildings","name":"Unknown","info":"997-Not Applicable","simplified":"Residential","damage_gra":"Damaged","det_method":"Photo-interpretation","notation":"Building point","or_src_id":2,"dmg_src_id":2,"cd_value":"Not Applicable"},"geometry":{"type":"Point","coordinates":[-75.70536847,4.81460601]}},{"type":"Feature","properties":{"obj_type":"11-Residential Buildings","name":"Unknown","info":"997-Not Applicable","simplified":"Residential","damage_gra":"Destroyed","det_method":"Photo-interpretation","notation":"Building point","or_src_id":2,"dmg_src_id":2,"cd_value":"Not Applicable"},"geometry":{"type":"Point","coordinates":[-75.70512244,4.81476347]}},{"type":"Feature","properties":{"obj_type":"11-Residential Buildings","name":"Unknown","info":"997-Not Applicable","simplified":"Residential","damage_gra":"Possibly damaged","det_method":"Photo-interpretation","notation":"Building point","or_src_id":2,"dmg_src_id":2,"cd_value":"Not Applicable"},"geometry":{"type":"Point","coordinates":[-75.70538815,4.8148197]}},{"type":"Feature","properties":{"obj_type":"11-Residential Buildings","name":"Unknown","info":"997-Not Applicable","simplified":"Residential","damage_gra":"Possibly damaged","det_method":"Photo-interpretation","notation":"Building point","or_src_id":2,"dmg_src_id":2,"cd_value":"Not Applicable"},"geometry":{"type":"Point","coordinates":[-75.7070555,4.81518804]}},{"type":"Feature","properties":{"obj_type":"11-Residential Buildings","name":"Unknown","info":"997-Not Applicable","simplified":"Residential","damage_gra":"Damaged","det_method":"Photo-interpretation","notation":"Building point","or_src_id":2,"dmg_src_id":2,"cd_value":"Not Applicable"},"geometry":{"type":"Point","coordinates":[-75.71204922,4.81551016]}},{"type":"Feature","properties":{"obj_type":"11-Residential Buildings","name":"Unknown","info":"997-Not Applicable","simplified":"Residential","damage_gra":"Damaged","det_method":"Photo-interpretation","notation":"Building point","or_src_id":2,"dmg_src_id":2,"cd_value":"Not Applicable"},"geometry":{"type":"Point","coordinates":[-75.70125585,4.81650083]}},{"type":"Feature","properties":{"obj_type":"11-Residential Buildings","name":"Unknown","info":"997-Not Applicable","simplified":"Residential","damage_gra":"Damaged","det_method":"Photo-interpretation","notation":"Building point","or_src_id":2,"dmg_src_id":2,"cd_value":"Not Applicable"},"geometry":{"type":"Point","coordinates":[-75.70190073,4.8165443]}},{"type":"Feature","properties":{"obj_type":"11-Residential Buildings","name":"Unknown","info":"997-Not Applicable","simplified":"Residential","damage_gra":"Damaged","det_method":"Photo-interpretation","notation":"Building point","or_src_id":2,"dmg_src_id":2,"cd_value":"Not Applicable"},"geometry":{"type":"Point","coordinates":[-75.70170268,4.81656846]}},{"type":"Feature","properties":{"obj_type":"11-Residential Buildings","name":"Unknown","info":"997-Not Applicable","simplified":"Residential","damage_gra":"Destroyed","det_method":"Photo-interpretation","notation":"Building point","or_src_id":2,"dmg_src_id":2,"cd_value":"Not Applicable"},"geometry":{"type":"Point","coordinates":[-75.70131865,4.81658053]}},{"type":"Feature","properties":{"obj_type":"11-Residential Buildings","name":"Unknown","info":"997-Not Applicable","simplified":"Residential","damage_gra":"Damaged","det_method":"Photo-interpretation","notation":"Building point","or_src_id":2,"dmg_src_id":2,"cd_value":"Not Applicable"},"geometry":{"type":"Point","coordinates":[-75.70238861,4.81659019]}},{"type":"Feature","properties":{"obj_type":"11-Residential Buildings","name":"Unknown","info":"997-Not Applicable","simplified":"Residential","damage_gra":"Damaged","det_method":"Photo-interpretation","notation":"Building point","or_src_id":2,"dmg_src_id":2,"cd_value":"Not Applicable"},"geometry":{"type":"Point","coordinates":[-75.70234514,4.81704668]}},{"type":"Feature","properties":{"obj_type":"11-Residential Buildings","name":"Unknown","info":"997-Not Applicable","simplified":"Residential","damage_gra":"Possibly damaged","det_method":"Photo-interpretation","notation":"Building point","or_src_id":2,"dmg_src_id":2,"cd_value":"Not Applicable"},"geometry":{"type":"Point","coordinates":[-75.7024345,4.81740655]}},{"type":"Feature","properties":{"obj_type":"11-Residential Buildings","name":"Unknown","info":"997-Not Applicable","simplified":"Residential","damage_gra":"Damaged","det_method":"Photo-interpretation","notation":"Building point","or_src_id":2,"dmg_src_id":2,"cd_value":"Not Applicable"},"geometry":{"type":"Point","coordinates":[-75.70249488,4.81551057]}},{"type":"Feature","properties":{"obj_type":"11-Residential Buildings","name":"Unknown","info":"997-Not Applicable","simplified":"Residential","damage_gra":"Damaged","det_method":"Photo-interpretation","notation":"Building point","or_src_id":2,"dmg_src_id":2,"cd_value":"Not Applicable"},"geometry":{"type":"Point","coordinates":[-75.70611015,4.81575999]}},{"type":"Feature","properties":{"obj_type":"11-Residential Buildings","name":"Unknown","info":"997-Not Applicable","simplified":"Residential","damage_gra":"Destroyed","det_method":"Photo-interpretation","notation":"Building point","or_src_id":2,"dmg_src_id":2,"cd_value":"Not Applicable"},"geometry":{"type":"Point","coordinates":[-75.70330882,4.81584629]}},{"type":"Feature","properties":{"obj_type":"11-Residential Buildings","name":"Unknown","info":"997-Not Applicable","simplified":"Residential","damage_gra":"Damaged","det_method":"Photo-interpretation","notation":"Building point","or_src_id":2,"dmg_src_id":2,"cd_value":"Not Applicable"},"geometry":{"type":"Point","coordinates":[-75.70477097,4.81610888]}},{"type":"Feature","properties":{"obj_type":"11-Residential Buildings","name":"Unknown","info":"997-Not Applicable","simplified":"Residential","damage_gra":"Destroyed","det_method":"Photo-interpretation","notation":"Building point","or_src_id":2,"dmg_src_id":2,"cd_value":"Not Applicable"},"geometry":{"type":"Point","coordinates":[-75.7052096,4.81614122]}},{"type":"Feature","properties":{"obj_type":"11-Residential Buildings","name":"Unknown","info":"997-Not Applicable","simplified":"Residential","damage_gra":"Damaged","det_method":"Photo-interpretation","notation":"Building point","or_src_id":2,"dmg_src_id":2,"cd_value":"Not Applicable"},"geometry":{"type":"Point","coordinates":[-75.70567825,4.81620608]}},{"type":"Feature","properties":{"obj_type":"11-Residential Buildings","name":"Unknown","info":"997-Not Applicable","simplified":"Residential","damage_gra":"Damaged","det_method":"Photo-interpretation","notation":"Building point","or_src_id":2,"dmg_src_id":2,"cd_value":"Not Applicable"},"geometry":{"type":"Point","coordinates":[-75.70519364,4.81667448]}},{"type":"Feature","properties":{"obj_type":"11-Residential Buildings","name":"Unknown","info":"997-Not Applicable","simplified":"Residential","damage_gra":"Destroyed","det_method":"Photo-interpretation","notation":"Building point","or_src_id":2,"dmg_src_id":2,"cd_value":"Not Applicable"},"geometry":{"type":"Point","coordinates":[-75.71494882,4.81675559]}},{"type":"Feature","properties":{"obj_type":"11-Residential Buildings","name":"Unknown","info":"997-Not Applicable","simplified":"Residential","damage_gra":"Possibly damaged","det_method":"Photo-interpretation","notation":"Building point","or_src_id":2,"dmg_src_id":2,"cd_value":"Not Applicable"},"geometry":{"type":"Point","coordinates":[-75.7187062,4.81833545]}},{"type":"Feature","properties":{"obj_type":"11-Residential Buildings","name":"Unknown","info":"997-Not Applicable","simplified":"Residential","damage_gra":"Possibly damaged","det_method":"Photo-interpretation","notation":"Building point","or_src_id":2,"dmg_src_id":2,"cd_value":"Not Applicable"},"geometry":{"type":"Point","coordinates":[-75.71581407,4.81844743]}},{"type":"Feature","properties":{"obj_type":"11-Residential Buildings","name":"Unknown","info":"997-Not Applicable","simplified":"Residential","damage_gra":"Possibly damaged","det_method":"Photo-interpretation","notation":"Building point","or_src_id":2,"dmg_src_id":2,"cd_value":"Not Applicable"},"geometry":{"type":"Point","coordinates":[-75.71864442,4.81902825]}},{"type":"Feature","properties":{"obj_type":"11-Residential Buildings","name":"Unknown","info":"997-Not Applicable","simplified":"Residential","damage_gra":"Possibly damaged","det_method":"Photo-interpretation","notation":"Building point","or_src_id":2,"dmg_src_id":2,"cd_value":"Not Applicable"},"geometry":{"type":"Point","coordinates":[-75.7144779,4.81941871]}},{"type":"Feature","properties":{"obj_type":"11-Residential Buildings","name":"Unknown","info":"997-Not Applicable","simplified":"Residential","damage_gra":"Damaged","det_method":"Photo-interpretation","notation":"Building point","or_src_id":2,"dmg_src_id":2,"cd_value":"Not Applicable"},"geometry":{"type":"Point","coordinates":[-75.70979648,4.81978495]}},{"type":"Feature","properties":{"obj_type":"11-Residential Buildings","name":"Unknown","info":"997-Not Applicable","simplified":"Residential","damage_gra":"Damaged","det_method":"Photo-interpretation","notation":"Building point","or_src_id":2,"dmg_src_id":2,"cd_value":"Not Applicable"},"geometry":{"type":"Point","coordinates":[-75.70910503,4.81995528]}},{"type":"Feature","properties":{"obj_type":"11-Residential Buildings","name":"Unknown","info":"997-Not Applicable","simplified":"Residential","damage_gra":"Possibly damaged","det_method":"Photo-interpretation","notation":"Building point","or_src_id":2,"dmg_src_id":2,"cd_value":"Not Applicable"},"geometry":{"type":"Point","coordinates":[-75.70485515,4.82084146]}},{"type":"Feature","properties":{"obj_type":"11-Residential Buildings","name":"Unknown","info":"997-Not Applicable","simplified":"Residential","damage_gra":"Possibly damaged","det_method":"Photo-interpretation","notation":"Building point","or_src_id":2,"dmg_src_id":2,"cd_value":"Not Applicable"},"geometry":{"type":"Point","coordinates":[-75.7053494,4.82092933]}},{"type":"Feature","properties":{"obj_type":"11-Residential Buildings","name":"Unknown","info":"997-Not Applicable","simplified":"Residential","damage_gra":"Destroyed","det_method":"Photo-interpretation","notation":"Building point","or_src_id":2,"dmg_src_id":2,"cd_value":"Not Applicable"},"geometry":{"type":"Point","coordinates":[-75.71193152,4.82138397]}}]}