{"type":"FeatureCollection","name":"EMSR916_AOI04_GRA_PRODUCT_builtUpP_v1","crs":{"type":"name","properties":{"name":"urn:ogc:def:crs:OGC:1.3:CRS84"}},"features":[{"type":"Feature","properties":{"obj_type":"11-Residential Buildings","name":"Unknown","info":"997-Not Applicable","simplified":"Residential","damage_gra":"Damaged","det_method":"Photo-interpretation","notation":"Building point","or_src_id":1,"dmg_src_id":3,"cd_value":"Not Applicable"},"geometry":{"type":"Point","coordinates":[-76.64123517,5.67535918]}},{"type":"Feature","properties":{"obj_type":"11-Residential Buildings","name":"Unknown","info":"997-Not Applicable","simplified":"Residential","damage_gra":"Damaged","det_method":"Photo-interpretation","notation":"Building point","or_src_id":1,"dmg_src_id":3,"cd_value":"Not Applicable"},"geometry":{"type":"Point","coordinates":[-76.64116067,5.67537779]}},{"type":"Feature","properties":{"obj_type":"11-Residential Buildings","name":"Unknown","info":"997-Not Applicable","simplified":"Residential","damage_gra":"Destroyed","det_method":"Photo-interpretation","notation":"Building point","or_src_id":1,"dmg_src_id":3,"cd_value":"Not Applicable"},"geometry":{"type":"Point","coordinates":[-76.64118745,5.67541899]}},{"type":"Feature","properties":{"obj_type":"11-Residential Buildings","name":"Unknown","info":"997-Not Applicable","simplified":"Residential","damage_gra":"Possibly damaged","det_method":"Photo-interpretation","notation":"Building point","or_src_id":1,"dmg_src_id":3,"cd_value":"Not Applicable"},"geometry":{"type":"Point","coordinates":[-76.64331707,5.67730059]}},{"type":"Feature","properties":{"obj_type":"11-Residential Buildings","name":"Unknown","info":"997-Not Applicable","simplified":"Residential","damage_gra":"Possibly damaged","det_method":"Photo-interpretation","notation":"Building point","or_src_id":1,"dmg_src_id":3,"cd_value":"Not Applicable"},"geometry":{"type":"Point","coordinates":[-76.6432513,5.67730755]}},{"type":"Feature","properties":{"obj_type":"11-Residential Buildings","name":"Unknown","info":"997-Not Applicable","simplified":"Residential","damage_gra":"Destroyed","det_method":"Photo-interpretation","notation":"Building point","or_src_id":1,"dmg_src_id":3,"cd_value":"Not Applicable"},"geometry":{"type":"Point","coordinates":[-76.64324494,5.67738644]}},{"type":"Feature","properties":{"obj_type":"11-Residential Buildings","name":"Unknown","info":"997-Not Applicable","simplified":"Residential","damage_gra":"Destroyed","det_method":"Photo-interpretation","notation":"Building point","or_src_id":1,"dmg_src_id":3,"cd_value":"Not Applicable"},"geometry":{"type":"Point","coordinates":[-76.64465074,5.67782878]}},{"type":"Feature","properties":{"obj_type":"11-Residential Buildings","name":"Unknown","info":"997-Not Applicable","simplified":"Residential","damage_gra":"Possibly damaged","det_method":"Photo-interpretation","notation":"Building point","or_src_id":1,"dmg_src_id":3,"cd_value":"Not Applicable"},"geometry":{"type":"Point","coordinates":[-76.64357194,5.67853716]}},{"type":"Feature","properties":{"obj_type":"11-Residential Buildings","name":"Unknown","info":"997-Not Applicable","simplified":"Residential","damage_gra":"Possibly damaged","det_method":"Photo-interpretation","notation":"Building point","or_src_id":1,"dmg_src_id":3,"cd_value":"Not Applicable"},"geometry":{"type":"Point","coordinates":[-76.64188262,5.68064436]}},{"type":"Feature","properties":{"obj_type":"11-Residential Buildings","name":"Unknown","info":"997-Not Applicable","simplified":"Residential","damage_gra":"Possibly damaged","det_method":"Photo-interpretation","notation":"Building point","or_src_id":1,"dmg_src_id":3,"cd_value":"Not Applicable"},"geometry":{"type":"Point","coordinates":[-76.64432546,5.68110298]}},{"type":"Feature","properties":{"obj_type":"11-Residential Buildings","name":"Unknown","info":"997-Not Applicable","simplified":"Residential","damage_gra":"Possibly damaged","det_method":"Photo-interpretation","notation":"Building point","or_src_id":1,"dmg_src_id":4,"cd_value":"Not Applicable"},"geometry":{"type":"Point","coordinates":[-76.65006006,5.67776126]}},{"type":"Feature","properties":{"obj_type":"11-Residential Buildings","name":"Unknown","info":"997-Not Applicable","simplified":"Residential","damage_gra":"Possibly damaged","det_method":"Photo-interpretation","notation":"Building point","or_src_id":1,"dmg_src_id":3,"cd_value":"Not Applicable"},"geometry":{"type":"Point","coordinates":[-76.65367621,5.67841928]}},{"type":"Feature","properties":{"obj_type":"11-Residential Buildings","name":"Unknown","info":"997-Not Applicable","simplified":"Residential","damage_gra":"Destroyed","det_method":"Photo-interpretation","notation":"Building point","or_src_id":1,"dmg_src_id":3,"cd_value":"Not Applicable"},"geometry":{"type":"Point","coordinates":[-76.6536748,5.67847174]}},{"type":"Feature","properties":{"obj_type":"11-Residential Buildings","name":"Unknown","info":"997-Not Applicable","simplified":"Residential","damage_gra":"Possibly damaged","det_method":"Photo-interpretation","notation":"Building point","or_src_id":1,"dmg_src_id":3,"cd_value":"Not Applicable"},"geometry":{"type":"Point","coordinates":[-76.65385315,5.67849217]}},{"type":"Feature","properties":{"obj_type":"11-Residential Buildings","name":"Unknown","info":"997-Not Applicable","simplified":"Residential","damage_gra":"Possibly damaged","det_method":"Photo-interpretation","notation":"Building point","or_src_id":1,"dmg_src_id":3,"cd_value":"Not Applicable"},"geometry":{"type":"Point","coordinates":[-76.6536827,5.67852705]}},{"type":"Feature","properties":{"obj_type":"11-Residential Buildings","name":"Unknown","info":"997-Not Applicable","simplified":"Residential","damage_gra":"Possibly damaged","det_method":"Photo-interpretation","notation":"Building point","or_src_id":1,"dmg_src_id":3,"cd_value":"Not Applicable"},"geometry":{"type":"Point","coordinates":[-76.65385202,5.67854976]}},{"type":"Feature","properties":{"obj_type":"11-Residential Buildings","name":"Unknown","info":"997-Not Applicable","simplified":"Residential","damage_gra":"Possibly damaged","det_method":"Photo-interpretation","notation":"Building point","or_src_id":1,"dmg_src_id":4,"cd_value":"Not Applicable"},"geometry":{"type":"Point","coordinates":[-76.64752568,5.67998837]}},{"type":"Feature","properties":{"obj_type":"11-Residential Buildings","name":"Unknown","info":"997-Not Applicable","simplified":"Residential","damage_gra":"Possibly damaged","det_method":"Photo-interpretation","notation":"Building point","or_src_id":1,"dmg_src_id":4,"cd_value":"Not Applicable"},"geometry":{"type":"Point","coordinates":[-76.64768807,5.68004936]}},{"type":"Feature","properties":{"obj_type":"11-Residential Buildings","name":"Unknown","info":"997-Not Applicable","simplified":"Residential","damage_gra":"Possibly damaged","det_method":"Photo-interpretation","notation":"Building point","or_src_id":1,"dmg_src_id":4,"cd_value":"Not Applicable"},"geometry":{"type":"Point","coordinates":[-76.64763676,5.68007976]}},{"type":"Feature","properties":{"obj_type":"11-Residential Buildings","name":"Unknown","info":"997-Not Applicable","simplified":"Residential","damage_gra":"Possibly damaged","det_method":"Photo-interpretation","notation":"Building point","or_src_id":1,"dmg_src_id":4,"cd_value":"Not Applicable"},"geometry":{"type":"Point","coordinates":[-76.64753961,5.68013269]}},{"type":"Feature","properties":{"obj_type":"11-Residential Buildings","name":"Unknown","info":"997-Not Applicable","simplified":"Residential","damage_gra":"Possibly damaged","det_method":"Photo-interpretation","notation":"Building point","or_src_id":1,"dmg_src_id":4,"cd_value":"Not Applicable"},"geometry":{"type":"Point","coordinates":[-76.65911975,5.67734453]}},{"type":"Feature","properties":{"obj_type":"11-Residential Buildings","name":"Unknown","info":"997-Not Applicable","simplified":"Residential","damage_gra":"Destroyed","det_method":"Photo-interpretation","notation":"Building point","or_src_id":1,"dmg_src_id":3,"cd_value":"Not Applicable"},"geometry":{"type":"Point","coordinates":[-76.66160321,5.67866673]}},{"type":"Feature","properties":{"obj_type":"11-Residential Buildings","name":"Unknown","info":"997-Not Applicable","simplified":"Residential","damage_gra":"Possibly damaged","det_method":"Photo-interpretation","notation":"Building point","or_src_id":1,"dmg_src_id":3,"cd_value":"Not Applicable"},"geometry":{"type":"Point","coordinates":[-76.66158803,5.67873218]}},{"type":"Feature","properties":{"obj_type":"11-Residential Buildings","name":"Unknown","info":"997-Not Applicable","simplified":"Residential","damage_gra":"Destroyed","det_method":"Photo-interpretation","notation":"Building point","or_src_id":1,"dmg_src_id":3,"cd_value":"Not Applicable"},"geometry":{"type":"Point","coordinates":[-76.65690253,5.67913799]}},{"type":"Feature","properties":{"obj_type":"11-Residential Buildings","name":"Unknown","info":"997-Not Applicable","simplified":"Residential","damage_gra":"Possibly damaged","det_method":"Photo-interpretation","notation":"Building point","or_src_id":1,"dmg_src_id":4,"cd_value":"Not Applicable"},"geometry":{"type":"Point","coordinates":[-76.65685359,5.67913849]}},{"type":"Feature","properties":{"obj_type":"11-Residential Buildings","name":"Unknown","info":"997-Not Applicable","simplified":"Residential","damage_gra":"Destroyed","det_method":"Photo-interpretation","notation":"Building point","or_src_id":1,"dmg_src_id":3,"cd_value":"Not Applicable"},"geometry":{"type":"Point","coordinates":[-76.6569323,5.67914243]}},{"type":"Feature","properties":{"obj_type":"11-Residential Buildings","name":"Unknown","info":"997-Not Applicable","simplified":"Residential","damage_gra":"Possibly damaged","det_method":"Photo-interpretation","notation":"Building point","or_src_id":1,"dmg_src_id":4,"cd_value":"Not Applicable"},"geometry":{"type":"Point","coordinates":[-76.6566245,5.67914886]}},{"type":"Feature","properties":{"obj_type":"11-Residential Buildings","name":"Unknown","info":"997-Not Applicable","simplified":"Residential","damage_gra":"Destroyed","det_method":"Photo-interpretation","notation":"Building point","or_src_id":1,"dmg_src_id":3,"cd_value":"Not Applicable"},"geometry":{"type":"Point","coordinates":[-76.65698819,5.67915469]}},{"type":"Feature","properties":{"obj_type":"11-Residential Buildings","name":"Unknown","info":"997-Not Applicable","simplified":"Residential","damage_gra":"Destroyed","det_method":"Photo-interpretation","notation":"Building point","or_src_id":1,"dmg_src_id":3,"cd_value":"Not Applicable"},"geometry":{"type":"Point","coordinates":[-76.66012971,5.68031938]}},{"type":"Feature","properties":{"obj_type":"11-Residential Buildings","name":"Unknown","info":"997-Not Applicable","simplified":"Residential","damage_gra":"Possibly damaged","det_method":"Photo-interpretation","notation":"Building point","or_src_id":1,"dmg_src_id":3,"cd_value":"Not Applicable"},"geometry":{"type":"Point","coordinates":[-76.65760639,5.68126779]}},{"type":"Feature","properties":{"obj_type":"11-Residential Buildings","name":"Unknown","info":"997-Not Applicable","simplified":"Residential","damage_gra":"Possibly damaged","det_method":"Photo-interpretation","notation":"Building point","or_src_id":1,"dmg_src_id":3,"cd_value":"Not Applicable"},"geometry":{"type":"Point","coordinates":[-76.64257671,5.68149728]}},{"type":"Feature","properties":{"obj_type":"11-Residential Buildings","name":"Unknown","info":"997-Not Applicable","simplified":"Residential","damage_gra":"Possibly damaged","det_method":"Photo-interpretation","notation":"Building point","or_src_id":1,"dmg_src_id":3,"cd_value":"Not Applicable"},"geometry":{"type":"Point","coordinates":[-76.64252977,5.68154028]}},{"type":"Feature","properties":{"obj_type":"11-Residential Buildings","name":"Unknown","info":"997-Not Applicable","simplified":"Residential","damage_gra":"Possibly damaged","det_method":"Photo-interpretation","notation":"Building point","or_src_id":1,"dmg_src_id":3,"cd_value":"Not Applicable"},"geometry":{"type":"Point","coordinates":[-76.64266327,5.68173439]}},{"type":"Feature","properties":{"obj_type":"11-Residential Buildings","name":"Unknown","info":"997-Not Applicable","simplified":"Residential","damage_gra":"Possibly damaged","det_method":"Photo-interpretation","notation":"Building point","or_src_id":1,"dmg_src_id":3,"cd_value":"Not Applicable"},"geometry":{"type":"Point","coordinates":[-76.64260132,5.68173845]}},{"type":"Feature","properties":{"obj_type":"11-Residential Buildings","name":"Unknown","info":"997-Not Applicable","simplified":"Residential","damage_gra":"Possibly damaged","det_method":"Photo-interpretation","notation":"Building point","or_src_id":1,"dmg_src_id":3,"cd_value":"Not Applicable"},"geometry":{"type":"Point","coordinates":[-76.64226545,5.68211036]}},{"type":"Feature","properties":{"obj_type":"11-Residential Buildings","name":"Unknown","info":"997-Not Applicable","simplified":"Residential","damage_gra":"Possibly damaged","det_method":"Photo-interpretation","notation":"Building point","or_src_id":1,"dmg_src_id":3,"cd_value":"Not Applicable"},"geometry":{"type":"Point","coordinates":[-76.64231505,5.68211264]}},{"type":"Feature","properties":{"obj_type":"11-Residential Buildings","name":"Unknown","info":"997-Not Applicable","simplified":"Residential","damage_gra":"Destroyed","det_method":"Photo-interpretation","notation":"Building point","or_src_id":1,"dmg_src_id":3,"cd_value":"Not Applicable"},"geometry":{"type":"Point","coordinates":[-76.64223159,5.68221648]}},{"type":"Feature","properties":{"obj_type":"11-Residential Buildings","name":"Unknown","info":"997-Not Applicable","simplified":"Residential","damage_gra":"Destroyed","det_method":"Photo-interpretation","notation":"Building point","or_src_id":1,"dmg_src_id":3,"cd_value":"Not Applicable"},"geometry":{"type":"Point","coordinates":[-76.6422668,5.68222636]}},{"type":"Feature","properties":{"obj_type":"11-Residential Buildings","name":"Unknown","info":"997-Not Applicable","simplified":"Residential","damage_gra":"Destroyed","det_method":"Photo-interpretation","notation":"Building point","or_src_id":1,"dmg_src_id":3,"cd_value":"Not Applicable"},"geometry":{"type":"Point","coordinates":[-76.64230174,5.68223264]}},{"type":"Feature","properties":{"obj_type":"11-Residential Buildings","name":"Unknown","info":"997-Not Applicable","simplified":"Residential","damage_gra":"Destroyed","det_method":"Photo-interpretation","notation":"Building point","or_src_id":1,"dmg_src_id":3,"cd_value":"Not Applicable"},"geometry":{"type":"Point","coordinates":[-76.6435663,5.68262481]}},{"type":"Feature","properties":{"obj_type":"11-Residential Buildings","name":"Unknown","info":"997-Not Applicable","simplified":"Residential","damage_gra":"Destroyed","det_method":"Photo-interpretation","notation":"Building point","or_src_id":1,"dmg_src_id":3,"cd_value":"Not Applicable"},"geometry":{"type":"Point","coordinates":[-76.65414276,5.68142296]}},{"type":"Feature","properties":{"obj_type":"11-Residential Buildings","name":"Unknown","info":"997-Not Applicable","simplified":"Residential","damage_gra":"Destroyed","det_method":"Photo-interpretation","notation":"Building point","or_src_id":1,"dmg_src_id":3,"cd_value":"Not Applicable"},"geometry":{"type":"Point","coordinates":[-76.65417089,5.68146938]}},{"type":"Feature","properties":{"obj_type":"11-Residential Buildings","name":"Unknown","info":"997-Not Applicable","simplified":"Residential","damage_gra":"Damaged","det_method":"Photo-interpretation","notation":"Building point","or_src_id":1,"dmg_src_id":3,"cd_value":"Not Applicable"},"geometry":{"type":"Point","coordinates":[-76.65419287,5.68151267]}},{"type":"Feature","properties":{"obj_type":"11-Residential Buildings","name":"Unknown","info":"997-Not Applicable","simplified":"Residential","damage_gra":"Possibly damaged","det_method":"Photo-interpretation","notation":"Building point","or_src_id":1,"dmg_src_id":3,"cd_value":"Not Applicable"},"geometry":{"type":"Point","coordinates":[-76.65429598,5.68153861]}},{"type":"Feature","properties":{"obj_type":"11-Residential Buildings","name":"Unknown","info":"997-Not Applicable","simplified":"Residential","damage_gra":"Possibly damaged","det_method":"Photo-interpretation","notation":"Building point","or_src_id":1,"dmg_src_id":3,"cd_value":"Not Applicable"},"geometry":{"type":"Point","coordinates":[-76.6582401,5.68218321]}},{"type":"Feature","properties":{"obj_type":"11-Residential Buildings","name":"Unknown","info":"997-Not Applicable","simplified":"Residential","damage_gra":"Possibly damaged","det_method":"Photo-interpretation","notation":"Building point","or_src_id":1,"dmg_src_id":3,"cd_value":"Not Applicable"},"geometry":{"type":"Point","coordinates":[-76.65495981,5.68366127]}},{"type":"Feature","properties":{"obj_type":"11-Residential Buildings","name":"Unknown","info":"997-Not Applicable","simplified":"Residential","damage_gra":"Possibly damaged","det_method":"Photo-interpretation","notation":"Building point","or_src_id":1,"dmg_src_id":3,"cd_value":"Not Applicable"},"geometry":{"type":"Point","coordinates":[-76.65747927,5.6849028]}},{"type":"Feature","properties":{"obj_type":"11-Residential Buildings","name":"Unknown","info":"997-Not Applicable","simplified":"Residential","damage_gra":"Possibly damaged","det_method":"Photo-interpretation","notation":"Building point","or_src_id":1,"dmg_src_id":3,"cd_value":"Not Applicable"},"geometry":{"type":"Point","coordinates":[-76.65871865,5.68509972]}},{"type":"Feature","properties":{"obj_type":"11-Residential Buildings","name":"Unknown","info":"997-Not Applicable","simplified":"Residential","damage_gra":"Destroyed","det_method":"Photo-interpretation","notation":"Building point","or_src_id":1,"dmg_src_id":3,"cd_value":"Not Applicable"},"geometry":{"type":"Point","coordinates":[-76.65877097,5.6851355]}},{"type":"Feature","properties":{"obj_type":"11-Residential Buildings","name":"Unknown","info":"997-Not Applicable","simplified":"Residential","damage_gra":"Possibly damaged","det_method":"Photo-interpretation","notation":"Building point","or_src_id":1,"dmg_src_id":3,"cd_value":"Not Applicable"},"geometry":{"type":"Point","coordinates":[-76.65883632,5.68517766]}},{"type":"Feature","properties":{"obj_type":"11-Residential Buildings","name":"Unknown","info":"997-Not Applicable","simplified":"Residential","damage_gra":"Possibly damaged","det_method":"Photo-interpretation","notation":"Building point","or_src_id":1,"dmg_src_id":4,"cd_value":"Not Applicable"},"geometry":{"type":"Point","coordinates":[-76.64609434,5.68083715]}},{"type":"Feature","properties":{"obj_type":"11-Residential Buildings","name":"Unknown","info":"997-Not Applicable","simplified":"Residential","damage_gra":"Possibly damaged","det_method":"Photo-interpretation","notation":"Building point","or_src_id":1,"dmg_src_id":4,"cd_value":"Not Applicable"},"geometry":{"type":"Point","coordinates":[-76.64619864,5.68091916]}},{"type":"Feature","properties":{"obj_type":"11-Residential Buildings","name":"Unknown","info":"997-Not Applicable","simplified":"Residential","damage_gra":"Possibly damaged","det_method":"Photo-interpretation","notation":"Building point","or_src_id":1,"dmg_src_id":3,"cd_value":"Not Applicable"},"geometry":{"type":"Point","coordinates":[-76.65406756,5.68139587]}},{"type":"Feature","properties":{"obj_type":"11-Residential Buildings","name":"Unknown","info":"997-Not Applicable","simplified":"Residential","damage_gra":"Possibly damaged","det_method":"Photo-interpretation","notation":"Building point","or_src_id":1,"dmg_src_id":3,"cd_value":"Not Applicable"},"geometry":{"type":"Point","coordinates":[-76.6540637,5.6814542]}},{"type":"Feature","properties":{"obj_type":"11-Residential Buildings","name":"Unknown","info":"997-Not Applicable","simplified":"Residential","damage_gra":"Destroyed","det_method":"Photo-interpretation","notation":"Building point","or_src_id":1,"dmg_src_id":3,"cd_value":"Not Applicable"},"geometry":{"type":"Point","coordinates":[-76.65411587,5.68149974]}},{"type":"Feature","properties":{"obj_type":"11-Residential Buildings","name":"Unknown","info":"997-Not Applicable","simplified":"Residential","damage_gra":"Damaged","det_method":"Photo-interpretation","notation":"Building point","or_src_id":1,"dmg_src_id":3,"cd_value":"Not Applicable"},"geometry":{"type":"Point","coordinates":[-76.65399494,5.68152027]}},{"type":"Feature","properties":{"obj_type":"11-Residential Buildings","name":"Unknown","info":"997-Not Applicable","simplified":"Residential","damage_gra":"Possibly damaged","det_method":"Photo-interpretation","notation":"Building point","or_src_id":1,"dmg_src_id":3,"cd_value":"Not Applicable"},"geometry":{"type":"Point","coordinates":[-76.65393545,5.68164003]}},{"type":"Feature","properties":{"obj_type":"11-Residential Buildings","name":"Unknown","info":"997-Not Applicable","simplified":"Residential","damage_gra":"Possibly damaged","det_method":"Photo-interpretation","notation":"Building point","or_src_id":1,"dmg_src_id":3,"cd_value":"Not Applicable"},"geometry":{"type":"Point","coordinates":[-76.64639456,5.68842602]}},{"type":"Feature","properties":{"obj_type":"11-Residential Buildings","name":"Unknown","info":"997-Not Applicable","simplified":"Residential","damage_gra":"Possibly damaged","det_method":"Photo-interpretation","notation":"Building point","or_src_id":1,"dmg_src_id":4,"cd_value":"Not Applicable"},"geometry":{"type":"Point","coordinates":[-76.64885724,5.68882833]}},{"type":"Feature","properties":{"obj_type":"11-Residential Buildings","name":"Unknown","info":"997-Not Applicable","simplified":"Residential","damage_gra":"Possibly damaged","det_method":"Photo-interpretation","notation":"Building point","or_src_id":1,"dmg_src_id":4,"cd_value":"Not Applicable"},"geometry":{"type":"Point","coordinates":[-76.64867765,5.68886935]}},{"type":"Feature","properties":{"obj_type":"11-Residential Buildings","name":"Unknown","info":"997-Not Applicable","simplified":"Residential","damage_gra":"Possibly damaged","det_method":"Photo-interpretation","notation":"Building point","or_src_id":1,"dmg_src_id":3,"cd_value":"Not Applicable"},"geometry":{"type":"Point","coordinates":[-76.64361131,5.68267509]}},{"type":"Feature","properties":{"obj_type":"11-Residential Buildings","name":"Unknown","info":"997-Not Applicable","simplified":"Residential","damage_gra":"Possibly damaged","det_method":"Photo-interpretation","notation":"Building point","or_src_id":1,"dmg_src_id":3,"cd_value":"Not Applicable"},"geometry":{"type":"Point","coordinates":[-76.64159227,5.68286295]}},{"type":"Feature","properties":{"obj_type":"11-Residential Buildings","name":"Unknown","info":"997-Not Applicable","simplified":"Residential","damage_gra":"Damaged","det_method":"Photo-interpretation","notation":"Building point","or_src_id":1,"dmg_src_id":3,"cd_value":"Not Applicable"},"geometry":{"type":"Point","coordinates":[-76.64199146,5.68603361]}},{"type":"Feature","properties":{"obj_type":"11-Residential Buildings","name":"Unknown","info":"997-Not Applicable","simplified":"Residential","damage_gra":"Damaged","det_method":"Photo-interpretation","notation":"Building point","or_src_id":1,"dmg_src_id":3,"cd_value":"Not Applicable"},"geometry":{"type":"Point","coordinates":[-76.64593325,5.68925734]}},{"type":"Feature","properties":{"obj_type":"11-Residential Buildings","name":"Unknown","info":"997-Not Applicable","simplified":"Residential","damage_gra":"Possibly damaged","det_method":"Photo-interpretation","notation":"Building point","or_src_id":1,"dmg_src_id":3,"cd_value":"Not Applicable"},"geometry":{"type":"Point","coordinates":[-76.65766598,5.68518839]}},{"type":"Feature","properties":{"obj_type":"11-Residential Buildings","name":"Unknown","info":"997-Not Applicable","simplified":"Residential","damage_gra":"Possibly damaged","det_method":"Photo-interpretation","notation":"Building point","or_src_id":1,"dmg_src_id":3,"cd_value":"Not Applicable"},"geometry":{"type":"Point","coordinates":[-76.66168505,5.68544321]}},{"type":"Feature","properties":{"obj_type":"11-Residential Buildings","name":"Unknown","info":"997-Not Applicable","simplified":"Residential","damage_gra":"Possibly damaged","det_method":"Photo-interpretation","notation":"Building point","or_src_id":1,"dmg_src_id":3,"cd_value":"Not Applicable"},"geometry":{"type":"Point","coordinates":[-76.66151038,5.68546398]}},{"type":"Feature","properties":{"obj_type":"11-Residential Buildings","name":"Unknown","info":"997-Not Applicable","simplified":"Residential","damage_gra":"Destroyed","det_method":"Photo-interpretation","notation":"Building point","or_src_id":1,"dmg_src_id":3,"cd_value":"Not Applicable"},"geometry":{"type":"Point","coordinates":[-76.66159286,5.68547408]}},{"type":"Feature","properties":{"obj_type":"11-Residential Buildings","name":"Unknown","info":"997-Not Applicable","simplified":"Residential","damage_gra":"Damaged","det_method":"Photo-interpretation","notation":"Building point","or_src_id":1,"dmg_src_id":3,"cd_value":"Not Applicable"},"geometry":{"type":"Point","coordinates":[-76.66000601,5.68979446]}},{"type":"Feature","properties":{"obj_type":"11-Residential Buildings","name":"Unknown","info":"997-Not Applicable","simplified":"Residential","damage_gra":"Possibly damaged","det_method":"Photo-interpretation","notation":"Building point","or_src_id":1,"dmg_src_id":4,"cd_value":"Not Applicable"},"geometry":{"type":"Point","coordinates":[-76.64878734,5.68905485]}},{"type":"Feature","properties":{"obj_type":"11-Residential Buildings","name":"Unknown","info":"997-Not Applicable","simplified":"Residential","damage_gra":"Damaged","det_method":"Photo-interpretation","notation":"Building point","or_src_id":1,"dmg_src_id":3,"cd_value":"Not Applicable"},"geometry":{"type":"Point","coordinates":[-76.64593381,5.68968562]}},{"type":"Feature","properties":{"obj_type":"11-Residential Buildings","name":"Unknown","info":"997-Not Applicable","simplified":"Residential","damage_gra":"Possibly damaged","det_method":"Photo-interpretation","notation":"Building point","or_src_id":1,"dmg_src_id":4,"cd_value":"Not Applicable"},"geometry":{"type":"Point","coordinates":[-76.65022294,5.69267688]}},{"type":"Feature","properties":{"obj_type":"11-Residential Buildings","name":"Unknown","info":"997-Not Applicable","simplified":"Residential","damage_gra":"Possibly damaged","det_method":"Photo-interpretation","notation":"Building point","or_src_id":1,"dmg_src_id":4,"cd_value":"Not Applicable"},"geometry":{"type":"Point","coordinates":[-76.65026489,5.69270754]}},{"type":"Feature","properties":{"obj_type":"11-Residential Buildings","name":"Unknown","info":"997-Not Applicable","simplified":"Residential","damage_gra":"Possibly damaged","det_method":"Photo-interpretation","notation":"Building point","or_src_id":1,"dmg_src_id":4,"cd_value":"Not Applicable"},"geometry":{"type":"Point","coordinates":[-76.6502679,5.69275714]}}]}